{"type": "Feature", "properties": {"name": "Naperville", "osm_relation": 124885, "bbox": {"south": 41.725262799999996, "west": -88.12942546744887, "north": 41.7816282, "east": -88.08651060000001}}, "geometry": {"type": "Polygon", "coordinates": [[[-88.1074314, 41.775799], [-88.1094342, 41.7757752], [-88.1095178, 41.7760483], [-88.1096523, 41.7764519], [-88.1097262, 41.7766469], [-88.1097928, 41.7768559], [-88.1098263, 41.7771591], [-88.1098197, 41.7773449], [-88.1097525, 41.7776679], [-88.1096986, 41.777912], [-88.111436, 41.777961], [-88.1114786, 41.7778692], [-88.1117263, 41.7775794], [-88.1124308, 41.777966], [-88.1126769, 41.777755], [-88.1128673, 41.777104], [-88.1124263, 41.7765926], [-88.1118254, 41.7762545], [-88.11158, 41.7760995], [-88.111454, 41.7759805], [-88.1112867, 41.775763], [-88.1112756, 41.7756084], [-88.1113071, 41.775474], [-88.1114042, 41.7752739], [-88.1116135, 41.7751729], [-88.1118232, 41.7751498], [-88.1120805, 41.7751408], [-88.1122673, 41.7752457], [-88.1123079, 41.7757967], [-88.1124089, 41.7763438], [-88.112893, 41.7769189], [-88.1131916, 41.777373], [-88.1139256, 41.777568], [-88.1144822, 41.777092], [-88.1147928, 41.7770779], [-88.1145994, 41.7728936], [-88.1146496, 41.7723916], [-88.111204, 41.772161], [-88.1111065, 41.7725767], [-88.1103003, 41.7724529], [-88.1108641, 41.7702355], [-88.1110382, 41.7698184], [-88.1112356, 41.7695166], [-88.1120591, 41.7686489], [-88.1118235, 41.7686548], [-88.1120209, 41.7683613], [-88.1121414, 41.768096], [-88.1122262, 41.767734], [-88.11239, 41.7669594], [-88.1127184, 41.7655615], [-88.1097143, 41.7656602], [-88.1096545, 41.7635109], [-88.1092265, 41.7635229], [-88.1090997, 41.7598109], [-88.1036298, 41.7599084], [-88.1036965, 41.7597521], [-88.1037977, 41.7595], [-88.1038443, 41.7592305], [-88.1038628, 41.7590406], [-88.1037296, 41.7558433], [-88.1036986, 41.7557503], [-88.1036404, 41.7557003], [-88.1035259, 41.7556933], [-88.1024119, 41.7558723], [-88.1013966, 41.7559905], [-88.0997346, 41.7562172], [-88.098966, 41.756329], [-88.0981091, 41.7564485], [-88.0967119, 41.7566458], [-88.0954071, 41.756809], [-88.0953455, 41.752805], [-88.0970302, 41.7527759], [-88.0971236, 41.7543721], [-88.0982774, 41.7543761], [-88.0982122, 41.7527521], [-88.1013068, 41.7526851], [-88.101266, 41.7517741], [-88.1037939, 41.7517388], [-88.1039029, 41.7544212], [-88.105219, 41.754369], [-88.1051562, 41.753374], [-88.1057173, 41.753365], [-88.1056878, 41.7509059], [-88.1035394, 41.7509739], [-88.1035513, 41.7501699], [-88.1012396, 41.7501979], [-88.1011932, 41.748925], [-88.1034784, 41.7488887], [-88.1034357, 41.7476735], [-88.1011102, 41.7477099], [-88.1011288, 41.7481774], [-88.0987045, 41.7482104], [-88.0987801, 41.7492257], [-88.0938903, 41.74929], [-88.0939659, 41.7509407], [-88.091252, 41.7509767], [-88.0911439, 41.74935], [-88.0889002, 41.749406], [-88.0885106, 41.7420047], [-88.0892474, 41.7419979], [-88.089188, 41.7408191], [-88.0893954, 41.740665], [-88.0893334, 41.7406087], [-88.0893056, 41.7405694], [-88.0892772, 41.7405174], [-88.0892546, 41.7401706], [-88.0885825, 41.740172], [-88.088594, 41.7392083], [-88.0908303, 41.7373971], [-88.0943357, 41.7345946], [-88.098364, 41.7344891], [-88.0979429, 41.7272628], [-88.12742546744887, 41.77486748879352], [-88.1263421, 41.7751302], [-88.120689, 41.776492], [-88.119882, 41.77667], [-88.117315, 41.777236], [-88.114843, 41.777797], [-88.113801, 41.778028], [-88.112987, 41.778203], [-88.112457, 41.778328], [-88.1119548, 41.7784533], [-88.111851, 41.778484], [-88.111132, 41.778691], [-88.1097308, 41.7791148], [-88.1075998, 41.7796282], [-88.1074314, 41.775799]], [[-88.1049241, 41.7488517], [-88.1071957, 41.748807], [-88.1072498, 41.7506461], [-88.1097886, 41.750576], [-88.1093954, 41.7475993], [-88.104904, 41.7476878], [-88.1049241, 41.7488517]]]}}