{"type": "FeatureCollection", "features": [{"type": "Feature", "id": 62343828, "properties": {"osm_id": 62343828, "osm_type": "way", "landuse": "grass"}, "geometry": {"type": "Polygon", "coordinates": [[[-88.09798021925458, 41.727323058371425], [-88.0981306170297, 41.72756590151228], [-88.0981278, 41.7276639], [-88.098221, 41.728092], [-88.09832, 41.731364], [-88.098343, 41.732188], [-88.0983457, 41.7322739], [-88.098369, 41.733031], [-88.0983718, 41.7331181], [-88.09842, 41.734642], [-88.098449, 41.734867], [-88.0985, 41.735067], [-88.098578, 41.735269], [-88.098655, 41.735424], [-88.0987548, 41.7355772], [-88.0985284, 41.7356503], [-88.0984372, 41.7354942], [-88.0983567, 41.7353461], [-88.098287, 41.73517], [-88.0982334, 41.7349738], [-88.0982012, 41.7347737], [-88.09818293783043, 41.73449384196532], [-88.098364, 41.7344891], [-88.09798376440393, 41.727964054908746], [-88.0979651, 41.7273234], [-88.09798021925458, 41.727323058371425]]]}}, {"type": "Feature", "id": 62343829, "properties": {"osm_id": 62343829, "osm_type": "way", "landuse": "grass"}, "geometry": {"type": "Polygon", "coordinates": [[[-88.0979651, 41.7273234], [-88.09798376440393, 41.727964054908746], [-88.0979464425417, 41.727323591899804], [-88.0979651, 41.7273234]]]}}, {"type": "Feature", "id": 62472195, "properties": {"osm_id": 62472195, "osm_type": "way", "landuse": "grass"}, "geometry": {"type": "Polygon", "coordinates": [[[-88.098894, 41.735768], [-88.099018, 41.735903], [-88.099207, 41.736078], [-88.099458, 41.736274], [-88.099776, 41.736498], [-88.099939, 41.736604], [-88.1000261, 41.736661], [-88.1000356, 41.7366672], [-88.0998963, 41.7367712], [-88.0996978, 41.7366511], [-88.0992955, 41.7363869], [-88.0990809, 41.7362348], [-88.0988663, 41.7360466], [-88.098641, 41.7357904], [-88.0987483, 41.7357504], [-88.0987591, 41.7357224], [-88.098833, 41.735695], [-88.098894, 41.735768]]]}}, {"type": "Feature", "id": 62555506, "properties": {"osm_id": 62555506, "osm_type": "way", "leisure": "playground"}, "geometry": {"type": "Polygon", "coordinates": [[[-88.0970532, 41.7395252], [-88.0971229, 41.7395292], [-88.0971444, 41.7393971], [-88.0970907, 41.7393931], [-88.0970639, 41.739245], [-88.0970664, 41.7392152], [-88.0971624, 41.7392097], [-88.0971519, 41.7391469], [-88.0972794, 41.7391326], [-88.0972629, 41.7390414], [-88.0974448, 41.7390328], [-88.097477, 41.739301], [-88.0973911, 41.739305], [-88.0974072, 41.7394384], [-88.0974819, 41.7394553], [-88.0975212, 41.7395052], [-88.0974953, 41.7395521], [-88.0974305, 41.7395773], [-88.0973486, 41.7395462], [-88.0973394, 41.7395037], [-88.0972838, 41.7395052], [-88.0972892, 41.7395692], [-88.0970532, 41.7395692], [-88.0970532, 41.7395252]]]}}, {"type": "Feature", "id": 67551703, "properties": {"osm_id": 67551703, "osm_type": "way", "landuse": "grass"}, "geometry": {"type": "Polygon", "coordinates": [[[-88.0923271, 41.7485189], [-88.0930352, 41.7484348], [-88.0944675, 41.7483988], [-88.0944635, 41.7476114], [-88.0947149, 41.7476594], [-88.0947566, 41.7476854], [-88.0947619, 41.7477325], [-88.0947029, 41.7479866], [-88.0946526, 41.7482953], [-88.0946372, 41.7484399], [-88.0946218, 41.748662], [-88.0946183, 41.7488699], [-88.094603, 41.7490317], [-88.0945688, 41.7490544], [-88.0945217, 41.7490679], [-88.0889275, 41.7491816], [-88.0889242, 41.7491053], [-88.0889218, 41.7490499], [-88.0923432, 41.7489751], [-88.0923271, 41.7485189]]]}}, {"type": "Feature", "id": 67558232, "properties": {"osm_id": 67558232, "osm_type": "way", "landuse": "grass"}, "geometry": {"type": "Polygon", "coordinates": [[[-88.0968601, 41.7475623], [-88.0966562, 41.7476344], [-88.0960554, 41.7476504], [-88.0960768, 41.7474102], [-88.0968734, 41.7475338], [-88.0968601, 41.7475623]]]}}, {"type": "Feature", "id": 67558866, "properties": {"osm_id": 67558866, "osm_type": "way", "landuse": "grass"}, "geometry": {"type": "Polygon", "coordinates": [[[-88.0985552, 41.7471417], [-88.0969888, 41.7471381], [-88.0974394, 41.7455932], [-88.0985284, 41.7455731], [-88.0985552, 41.7471417]]]}}, {"type": "Feature", "id": 67712982, "properties": {"osm_id": 67712982, "osm_type": "way", "leisure": "pitch"}, "geometry": {"type": "Polygon", "coordinates": [[[-88.0962876, 41.740552], [-88.0962899, 41.7403384], [-88.0964179, 41.7403391], [-88.0964156, 41.7405527], [-88.0962876, 41.740552]]]}}, {"type": "Feature", "id": 67741440, "properties": {"osm_id": 67741440, "osm_type": "way", "landuse": "grass"}, "geometry": {"type": "Polygon", "coordinates": [[[-88.08859399651018, 41.739208592446175], [-88.088594, 41.7392083], [-88.0886205001153, 41.73918683731216], [-88.08859399651018, 41.739208592446175]]]}}, {"type": "Feature", "id": 67764151, "properties": {"osm_id": 67764151, "osm_type": "way", "landuse": "grass"}, "geometry": {"type": "Polygon", "coordinates": [[[-88.0983192, 41.7280241], [-88.09831623136473, 41.727865607861474], [-88.09841438882113, 41.7280241], [-88.0983192, 41.7280241]]]}}, {"type": "Feature", "id": 67951631, "properties": {"osm_id": 67951631, "osm_type": "way", "landuse": "grass"}, "geometry": {"type": "Polygon", "coordinates": [[[-88.0988717, 41.7404939], [-88.0988921, 41.7404632], [-88.0989093, 41.7404338], [-88.099317, 41.7406179], [-88.099299, 41.7406482], [-88.0992687, 41.740678], [-88.0988717, 41.7404939]]]}}, {"type": "Feature", "id": 67952549, "properties": {"osm_id": 67952549, "osm_type": "way", "leisure": "park", "name": "Ranchview Park"}, "geometry": {"type": "Polygon", "coordinates": [[[-88.0979544, 41.7417907], [-88.0973428, 41.7417387], [-88.096801, 41.7416026], [-88.09605, 41.7416546], [-88.0958462, 41.7406259], [-88.0959427, 41.7406259], [-88.0961144, 41.7406259], [-88.0962485, 41.7406299], [-88.0975145, 41.7406339], [-88.0975145, 41.7402697], [-88.0979598, 41.7402697], [-88.0980509, 41.7400135], [-88.0981475, 41.7397453], [-88.0992365, 41.7399495], [-88.0989093, 41.7404338], [-88.0988921, 41.7404632], [-88.0988717, 41.7404939], [-88.0979544, 41.7417907]]]}}, {"type": "Feature", "id": 69489393, "properties": {"osm_id": 69489393, "osm_type": "way", "landuse": "grass"}, "geometry": {"type": "Polygon", "coordinates": [[[-88.1140047, 41.7557545], [-88.1144929, 41.7560867], [-88.1143749, 41.7561827], [-88.1138599, 41.7558386], [-88.1136882, 41.7551343], [-88.1128782, 41.7550342], [-88.1123632, 41.7553424], [-88.1122452, 41.7542138], [-88.1137204, 41.7539577], [-88.11440774674891, 41.75384813409188], [-88.11497247368906, 41.75475998311202], [-88.1142461, 41.7547421], [-88.1139082, 41.7550502], [-88.1140047, 41.7557545]]]}}, {"type": "Feature", "id": 121870171, "properties": {"osm_id": 121870171, "osm_type": "way", "leisure": "park", "name": "Huntington Estates Park"}, "geometry": {"type": "Polygon", "coordinates": [[[-88.1144848, 41.7601894], [-88.1147048, 41.7601904], [-88.1148568, 41.7588493], [-88.1155069, 41.7588837], [-88.1158395, 41.7591478], [-88.1156755, 41.7595485], [-88.1156616, 41.7599477], [-88.1159952, 41.7604127], [-88.1157766, 41.7605033], [-88.1144731, 41.7602933], [-88.1144848, 41.7601894]]]}}, {"type": "Feature", "id": 188291510, "properties": {"osm_id": 188291510, "osm_type": "way", "leisure": "playground"}, "geometry": {"type": "Polygon", "coordinates": [[[-88.1224285, 41.7744867], [-88.1224297, 41.7744908], [-88.1224243, 41.7744968], [-88.1224167, 41.7745002], [-88.1223673, 41.7745158], [-88.1223499, 41.7744863], [-88.1223409, 41.7744815], [-88.1223301, 41.7744835], [-88.1222599, 41.7745064], [-88.1222486, 41.7745136], [-88.1222466, 41.7745209], [-88.1222597, 41.7745433], [-88.122201, 41.7745655], [-88.122164, 41.7745812], [-88.1221208, 41.7746042], [-88.1220709, 41.7745074], [-88.1220678, 41.7744904], [-88.1220688, 41.7744724], [-88.1220738, 41.7744573], [-88.1220847, 41.7744419], [-88.1220984, 41.7744294], [-88.1221157, 41.7744198], [-88.1221439, 41.7744098], [-88.1223403, 41.774348], [-88.1223559, 41.7743492], [-88.1223651, 41.7743541], [-88.1223719, 41.7743582], [-88.1224285, 41.7744867]]]}}, {"type": "Feature", "id": 188291512, "properties": {"osm_id": 188291512, "osm_type": "way", "leisure": "park", "name": "Pembroke Park"}, "geometry": {"type": "Polygon", "coordinates": [[[-88.1226243, 41.7750047], [-88.1207865, 41.7750018], [-88.1207963, 41.7748527], [-88.1208366, 41.7742704], [-88.1227399, 41.7742594], [-88.1226243, 41.7750047]]]}}, {"type": "Feature", "id": 190008045, "properties": {"osm_id": 190008045, "osm_type": "way", "leisure": "playground"}, "geometry": {"type": "Polygon", "coordinates": [[[-88.1080019, 41.759387], [-88.1080288, 41.7593841], [-88.1080636, 41.759389], [-88.1080905, 41.7594001], [-88.1081173, 41.7594441], [-88.1081306, 41.759477], [-88.1081307, 41.7595081], [-88.1081147, 41.7595382], [-88.1080555, 41.7596011], [-88.1080181, 41.7596362], [-88.1079993, 41.7596502], [-88.107975, 41.7596591], [-88.1079482, 41.7596631], [-88.1079162, 41.7596622], [-88.1078679, 41.7596502], [-88.1077776, 41.7596205], [-88.107753, 41.7596016], [-88.1077163, 41.7595384], [-88.1078861, 41.759481], [-88.1079201, 41.7595441], [-88.1080234, 41.7595084], [-88.1079587, 41.7594033], [-88.1080019, 41.759387]]]}}, {"type": "Feature", "id": 190849165, "properties": {"osm_id": 190849165, "osm_type": "way", "leisure": "park", "name": "Huntington Estates Parkway"}, "geometry": {"type": "Polygon", "coordinates": [[[-88.1155417, 41.7609408], [-88.1156516, 41.7609948], [-88.1157348, 41.7610508], [-88.1157884, 41.7611108], [-88.1158287, 41.7611688], [-88.1159038, 41.7613109], [-88.1150642, 41.761533], [-88.1142435, 41.7613749], [-88.1132082, 41.761573], [-88.1131947, 41.7612049], [-88.1143634, 41.7611488], [-88.1152456, 41.7612592], [-88.1153622, 41.7608996], [-88.1155417, 41.7609408]]]}}, {"type": "Feature", "id": 190849174, "properties": {"osm_id": 190849174, "osm_type": "way", "leisure": "playground"}, "geometry": {"type": "Polygon", "coordinates": [[[-88.1143052, 41.758912], [-88.1143347, 41.758918], [-88.1143696, 41.75891], [-88.1144017, 41.758898], [-88.114442, 41.758898], [-88.1144731, 41.7589091], [-88.1144983, 41.75893], [-88.1145117, 41.758958], [-88.1145026, 41.7589851], [-88.1144865, 41.7590071], [-88.1144661, 41.759024], [-88.1144339, 41.759032], [-88.1143991, 41.759032], [-88.1143669, 41.759022], [-88.1143454, 41.759004], [-88.1143266, 41.758988], [-88.1143025, 41.758982], [-88.1142703, 41.758982], [-88.1142435, 41.758992], [-88.114222, 41.75901], [-88.1142059, 41.759032], [-88.1141818, 41.759044], [-88.1141496, 41.759046], [-88.1141228, 41.759034], [-88.1141094, 41.759016], [-88.1141067, 41.758996], [-88.1141147, 41.758978], [-88.1141174, 41.758958], [-88.1141094, 41.758936], [-88.1140906, 41.758912], [-88.1140933, 41.758892], [-88.1141094, 41.758872], [-88.1141416, 41.758866], [-88.1141738, 41.758874], [-88.1142059, 41.758878], [-88.1142354, 41.758874], [-88.1142676, 41.758884], [-88.1142837, 41.758898], [-88.1143052, 41.758912]]]}}, {"type": "Feature", "id": 190849180, "properties": {"osm_id": 190849180, "osm_type": "way", "leisure": "playground"}, "geometry": {"type": "Polygon", "coordinates": [[[-88.1198177, 41.765988], [-88.1198009, 41.7659962], [-88.1196787, 41.7659881], [-88.1196664, 41.765997], [-88.1195795, 41.7659909], [-88.1195711, 41.7659885], [-88.1195658, 41.7659807], [-88.119564, 41.7659703], [-88.1195631, 41.7659472], [-88.119567, 41.7659226], [-88.1195718, 41.7659068], [-88.1195841, 41.7658822], [-88.1195993, 41.7658632], [-88.1196187, 41.7658464], [-88.1196402, 41.7658337], [-88.1196612, 41.765829], [-88.1197319, 41.7658175], [-88.1198438, 41.7658283], [-88.1198177, 41.765988]]]}}, {"type": "Feature", "id": 190849181, "properties": {"osm_id": 190849181, "osm_type": "way", "leisure": "park", "name": "Olesen Farm Park"}, "geometry": {"type": "Polygon", "coordinates": [[[-88.1202229, 41.7657848], [-88.1207947, 41.7658374], [-88.1207221, 41.7662767], [-88.1194396, 41.7661588], [-88.1196034, 41.7651728], [-88.120314, 41.7652362], [-88.1202229, 41.7657848]]]}}, {"type": "Feature", "id": 190849184, "properties": {"osm_id": 190849184, "osm_type": "way", "leisure": "playground"}, "geometry": {"type": "Polygon", "coordinates": [[[-88.1146459, 41.7600579], [-88.1146485, 41.7601244], [-88.1146163, 41.7601425], [-88.11456, 41.7601425], [-88.1145224, 41.7601725], [-88.1144704, 41.7601736], [-88.1144642, 41.7601855], [-88.11445, 41.7601905], [-88.1144362, 41.7601906], [-88.114423, 41.7601866], [-88.1144125, 41.7601725], [-88.1142515, 41.7601745], [-88.1142462, 41.7600464], [-88.1146136, 41.7600384], [-88.1146459, 41.7600579]]]}}, {"type": "Feature", "id": 190849854, "properties": {"osm_id": 190849854, "osm_type": "way", "leisure": "pitch"}, "geometry": {"type": "Polygon", "coordinates": [[[-88.1130895, 41.7776559], [-88.1130114, 41.7774503], [-88.1131384, 41.7774235], [-88.1132164, 41.7776291], [-88.1130895, 41.7776559]]]}}, {"type": "Feature", "id": 354637921, "properties": {"osm_id": 354637921, "osm_type": "way", "leisure": "playground"}, "geometry": {"type": "Polygon", "coordinates": [[[-88.109009, 41.7519599], [-88.1090305, 41.7519819], [-88.1090412, 41.7520099], [-88.1090359, 41.7520399], [-88.1090144, 41.7520719], [-88.1089876, 41.752092], [-88.1089527, 41.752102], [-88.1089205, 41.7521], [-88.1088776, 41.75209], [-88.1088454, 41.7520759], [-88.108824, 41.7520539], [-88.1087971, 41.7520419], [-88.108765, 41.7520359], [-88.108722, 41.7520239], [-88.1086952, 41.7520079], [-88.1086764, 41.7519859], [-88.1086604, 41.7519579], [-88.1086577, 41.7519279], [-88.1086684, 41.7519019], [-88.1086899, 41.7518838], [-88.1087194, 41.7518698], [-88.1087515, 41.7518598], [-88.1087864, 41.7518558], [-88.108824, 41.7518638], [-88.1088588, 41.7518818], [-88.108883, 41.7519099], [-88.1089044, 41.7519239], [-88.1089447, 41.7519339], [-88.1089822, 41.7519439], [-88.109009, 41.7519599]]]}}, {"type": "Feature", "id": 354637922, "properties": {"osm_id": 354637922, "osm_type": "way", "leisure": "park", "name": "Three Meadows Park"}, "geometry": {"type": "Polygon", "coordinates": [[[-88.1105596, 41.7519493], [-88.1105555, 41.7519748], [-88.1105325, 41.7519959], [-88.1105003, 41.7520099], [-88.1104616, 41.7520188], [-88.1100182, 41.7520901], [-88.1086738, 41.7523061], [-88.1086377, 41.752309], [-88.1086001, 41.752305], [-88.1085733, 41.752287], [-88.1085545, 41.7522589], [-88.1082836, 41.7513285], [-88.108281, 41.7512944], [-88.1082902, 41.7512735], [-88.1083078, 41.7512564], [-88.10834, 41.7512444], [-88.1086404, 41.7512044], [-88.1086994, 41.7512044], [-88.1087879, 41.7512104], [-88.1092251, 41.7512604], [-88.1092975, 41.7512644], [-88.109386, 41.7512664], [-88.1094665, 41.7512604], [-88.1095389, 41.7512504], [-88.1099421, 41.7511786], [-88.1103248, 41.7511103], [-88.1103597, 41.7511063], [-88.1103999, 41.7511124], [-88.1104348, 41.7511284], [-88.1104535, 41.7511544], [-88.1104542, 41.7511778], [-88.1105596, 41.7519493]]]}}, {"type": "Feature", "id": 444445729, "properties": {"osm_id": 444445729, "osm_type": "way", "leisure": "park", "name": "Campus Greens Park"}, "geometry": {"type": "Polygon", "coordinates": [[[-88.1083515, 41.7445983], [-88.1060614, 41.7446406], [-88.1060565, 41.7444481], [-88.105942, 41.7442723], [-88.1058723, 41.7439561], [-88.1058294, 41.743656], [-88.1060159, 41.7434562], [-88.10745471068746, 41.74262125846616], [-88.10834168756855, 41.74405343558115], [-88.1083515, 41.7445983]]]}}, {"type": "Feature", "id": 444445944, "properties": {"osm_id": 444445944, "osm_type": "way", "leisure": "park", "name": "University Heights Park"}, "geometry": {"type": "Polygon", "coordinates": [[[-88.1042619, 41.7374999], [-88.1041561, 41.7374696], [-88.10421134074619, 41.737384278445184], [-88.10428747459426, 41.737507209670575], [-88.1042619, 41.7374999]]]}}, {"type": "Feature", "id": 478146495, "properties": {"osm_id": 478146495, "osm_type": "way", "leisure": "park", "name": "Meadow Glens Park"}, "geometry": {"type": "Polygon", "coordinates": [[[-88.104905, 41.7476854], [-88.1036463, 41.7477232], [-88.1036553, 41.7462126], [-88.1053953, 41.746158], [-88.1056961, 41.7461641], [-88.1060376, 41.7462247], [-88.1062978, 41.7463582], [-88.1065824, 41.7464613], [-88.106669, 41.7464808], [-88.1067617, 41.7464981], [-88.1068594, 41.7465105], [-88.1069551, 41.7465175], [-88.1070481, 41.7465208], [-88.1071969, 41.7465151], [-88.1073547, 41.7464961], [-88.1075435, 41.7464552], [-88.1076299, 41.7464271], [-88.1077242, 41.7463931], [-88.1078061, 41.7463561], [-88.1078855, 41.7463161], [-88.1080122, 41.7462377], [-88.1080786, 41.7461899], [-88.1081442, 41.7461369], [-88.1082356, 41.7460375], [-88.10842, 41.745794], [-88.1085089, 41.7457221], [-88.1085567, 41.7456872], [-88.1086122, 41.7456515], [-88.1086728, 41.745621], [-88.108748, 41.74559], [-88.1088148, 41.7455659], [-88.1088916, 41.7455441], [-88.1089889, 41.7455252], [-88.1091042, 41.7455124], [-88.1093975, 41.7476018], [-88.10939573457104, 41.7476018328525], [-88.1093954, 41.7475993], [-88.10707773161116, 41.74764496808844], [-88.104905, 41.7476854]]]}}, {"type": "Feature", "id": 609362423, "properties": {"osm_id": 609362423, "osm_type": "way", "leisure": "pitch"}, "geometry": {"type": "Polygon", "coordinates": [[[-88.1217614, 41.77487], [-88.1213026, 41.7748812], [-88.1212951, 41.7746995], [-88.1213554, 41.7745847], [-88.1214625, 41.7745216], [-88.1216232, 41.7744854], [-88.1218275, 41.7744804], [-88.1218191, 41.7748263], [-88.1217614, 41.77487]]]}}, {"type": "Feature", "id": 609622272, "properties": {"osm_id": 609622272, "osm_type": "way", "leisure": "park", "name": "Huntington Ridge Park"}, "geometry": {"type": "Polygon", "coordinates": [[[-88.1084374, 41.7597353], [-88.1082857, 41.7597096], [-88.1081934, 41.759726], [-88.1080927, 41.7597065], [-88.1079231, 41.7597373], [-88.1078652, 41.7597404], [-88.1077466, 41.7597229], [-88.1076749, 41.7597425], [-88.107537, 41.7597528], [-88.1074764, 41.7594936], [-88.1077852, 41.7594226], [-88.1080293, 41.759328], [-88.1082802, 41.7591778], [-88.1084347, 41.7590318], [-88.1085794, 41.7588538], [-88.1090703, 41.7588333], [-88.109182, 41.7597219], [-88.1084374, 41.7597353]]]}}, {"type": "Feature", "id": 611247755, "properties": {"osm_id": 611247755, "osm_type": "way", "leisure": "playground"}, "geometry": {"type": "Polygon", "coordinates": [[[-88.1171261, 41.7725004], [-88.1170821, 41.7724962], [-88.1170503, 41.7724751], [-88.1170361, 41.7724481], [-88.1170417, 41.772401], [-88.1170297, 41.7723699], [-88.117012, 41.7723535], [-88.1170042, 41.7723265], [-88.1170169, 41.7723033], [-88.1170453, 41.7722916], [-88.1170666, 41.772289], [-88.1172352, 41.7722943], [-88.11727, 41.7723001], [-88.1172983, 41.7723144], [-88.1173125, 41.7723376], [-88.1173111, 41.7723635], [-88.1172969, 41.7723878], [-88.1172806, 41.7723958], [-88.1172331, 41.7724132], [-88.1172133, 41.7724264], [-88.117197, 41.772446], [-88.1171679, 41.7724846], [-88.1171261, 41.7725004]]]}}, {"type": "Feature", "id": 611697028, "properties": {"osm_id": 611697028, "osm_type": "way", "leisure": "pitch"}, "geometry": {"type": "Polygon", "coordinates": [[[-88.1046618, 41.7466771], [-88.1046609, 41.7468276], [-88.1046316, 41.7469713], [-88.1045437, 41.7470949], [-88.1044199, 41.7471699], [-88.1042533, 41.7471955], [-88.1040147, 41.7472005], [-88.1040097, 41.7467227], [-88.1040658, 41.7466859], [-88.1046618, 41.7466771]]]}}, {"type": "Feature", "id": 611697029, "properties": {"osm_id": 611697029, "osm_type": "way", "leisure": "pitch"}, "geometry": {"type": "Polygon", "coordinates": [[[-88.1075636, 41.7467335], [-88.1075803, 41.7468135], [-88.1075787, 41.7469334], [-88.1075318, 41.7470783], [-88.1074489, 41.7471957], [-88.1072631, 41.7472781], [-88.1069994, 41.747315], [-88.106909, 41.7468441], [-88.1069467, 41.7468047], [-88.1075636, 41.7467335]]]}}, {"type": "Feature", "id": 614313516, "properties": {"osm_id": 614313516, "osm_type": "way", "leisure": "playground"}, "geometry": {"type": "Polygon", "coordinates": [[[-88.1084564, 41.7767375], [-88.1084533, 41.7767488], [-88.1084428, 41.7767531], [-88.1084225, 41.7767531], [-88.1082201, 41.7767294], [-88.1082096, 41.7767258], [-88.1082093, 41.7767044], [-88.1082139, 41.7767], [-88.108357, 41.7766321], [-88.1083722, 41.7766335], [-88.1083793, 41.776639], [-88.1084323, 41.7766975], [-88.1084545, 41.7767258], [-88.1084564, 41.7767375]]]}}, {"type": "Feature", "id": 619258325, "properties": {"osm_id": 619258325, "osm_type": "way", "leisure": "park", "name": "Huntington Commons"}, "geometry": {"type": "Polygon", "coordinates": [[[-88.1172032, 41.7742792], [-88.116512, 41.7742335], [-88.1166558, 41.7730229], [-88.1167739, 41.7720264], [-88.1172123, 41.7720249], [-88.1175733, 41.7720527], [-88.1175128, 41.7725622], [-88.117408, 41.7725553], [-88.1172032, 41.7742792]]]}}, {"type": "Feature", "id": 619258326, "properties": {"osm_id": 619258326, "osm_type": "way", "leisure": "park", "name": "Rock Ridge Park"}, "geometry": {"type": "Polygon", "coordinates": [[[-88.1184745, 41.7650368], [-88.1182814, 41.7644107], [-88.1186006, 41.7640316], [-88.1187713, 41.7636601], [-88.1184888, 41.7634236], [-88.1181574, 41.7633099], [-88.1174419, 41.7633144], [-88.1168382, 41.763883], [-88.1169154, 41.7643364], [-88.116765, 41.76435], [-88.1166979, 41.76393], [-88.1158203, 41.7640013], [-88.1153406, 41.7639376], [-88.1147023, 41.7638527], [-88.114686, 41.7637253], [-88.1142632, 41.7634342], [-88.113629, 41.7634736], [-88.1133074, 41.7635676], [-88.1132936, 41.7633012], [-88.1194724, 41.7631729], [-88.1193451, 41.7638163], [-88.1195931, 41.7643106], [-88.1200809, 41.7643834], [-88.1200077, 41.7651384], [-88.1196581, 41.765102], [-88.1194955, 41.7646927], [-88.1191987, 41.764632], [-88.1184745, 41.7650368]]]}}, {"type": "Feature", "id": 637990239, "properties": {"osm_id": 637990239, "osm_type": "way", "leisure": "pitch"}, "geometry": {"type": "Polygon", "coordinates": [[[-88.0972744, 41.7399758], [-88.0972432, 41.7400064], [-88.0971668, 41.7400243], [-88.0970772, 41.7400261], [-88.0970081, 41.7400039], [-88.0969595, 41.7399544], [-88.096939, 41.7398789], [-88.0969526, 41.7398276], [-88.0969975, 41.7397918], [-88.0972048, 41.7397665], [-88.0971405, 41.7397252], [-88.0971887, 41.7397225], [-88.0972066, 41.7397359], [-88.0972655, 41.7397279], [-88.0973137, 41.7397545], [-88.0973316, 41.7398105], [-88.0973459, 41.7398185], [-88.0973459, 41.7398438], [-88.0972816, 41.7398132], [-88.0972655, 41.7398238], [-88.0972744, 41.7399758]]]}}, {"type": "Feature", "id": 705660772, "properties": {"osm_id": 705660772, "osm_type": "way", "landuse": "grass"}, "geometry": {"type": "MultiPolygon", "coordinates": [[[[-88.1036515, 41.7557038], [-88.1036899, 41.7557351], [-88.1037081, 41.7557648], [-88.1037252, 41.7558091], [-88.10372767452229, 41.75583752356688], [-88.1036986, 41.7557503], [-88.10364162244352, 41.75570135020921], [-88.1036515, 41.7557038]]], [[[-88.103551, 41.7556892], [-88.1036011, 41.7556913], [-88.10363640266587, 41.755700055621496], [-88.1035259, 41.7556933], [-88.10347021015906, 41.75570224836762], [-88.103551, 41.7556892]]], [[[-88.1014094, 41.7559878], [-88.10167398795625, 41.75595820682909], [-88.1013966, 41.7559905], [-88.10038972138032, 41.75612784018236], [-88.1014094, 41.7559878]]], [[[-88.0966479, 41.7566534], [-88.0980132, 41.7564617], [-88.0989356, 41.7563309], [-88.09963558417695, 41.756231602769994], [-88.098966, 41.756329], [-88.0981091, 41.7564485], [-88.0967119, 41.7566458], [-88.09623632977184, 41.756705282726266], [-88.0966479, 41.7566534]]], [[[-88.09588240692533, 41.75674955020676], [-88.0954071, 41.756809], [-88.09540687799414, 41.7567945696188], [-88.09588240692533, 41.75674955020676]]]]}}, {"type": "Feature", "id": 870552592, "properties": {"osm_id": 870552592, "osm_type": "way", "leisure": "playground"}, "geometry": {"type": "Polygon", "coordinates": [[[-88.1046005, 41.7464468], [-88.1046079, 41.7464403], [-88.1045909, 41.7464241], [-88.1045949, 41.746409], [-88.1045964, 41.7463975], [-88.1045875, 41.7463765], [-88.1045835, 41.7463654], [-88.1045831, 41.7463496], [-88.1045891, 41.7463328], [-88.1045978, 41.7463201], [-88.1046116, 41.7463104], [-88.1046222, 41.7463045], [-88.1046349, 41.7463022], [-88.1046509, 41.7463019], [-88.1046731, 41.7463036], [-88.1046895, 41.7463086], [-88.1047059, 41.7463169], [-88.1047127, 41.7463255], [-88.1047257, 41.7463366], [-88.1047378, 41.746345], [-88.1047601, 41.7463529], [-88.1047753, 41.7463603], [-88.1047888, 41.7463716], [-88.1047959, 41.7463838], [-88.1048005, 41.7463927], [-88.1047994, 41.7464061], [-88.1047944, 41.7464186], [-88.1047787, 41.7464339], [-88.1047602, 41.7464414], [-88.1047496, 41.7464462], [-88.1047525, 41.7464481], [-88.1047506, 41.7464565], [-88.1047452, 41.7464597], [-88.1047209, 41.7464588], [-88.104707, 41.7464597], [-88.1047069, 41.7464645], [-88.104715, 41.7464666], [-88.1047292, 41.7464676], [-88.1047446, 41.7464675], [-88.1047534, 41.7464684], [-88.1047617, 41.7464735], [-88.1047604, 41.7464799], [-88.1047675, 41.7464822], [-88.1047819, 41.7464861], [-88.1047853, 41.7464906], [-88.1047854, 41.7465033], [-88.1047798, 41.7465142], [-88.1047701, 41.7465201], [-88.1047568, 41.7465217], [-88.1047316, 41.7465212], [-88.1047023, 41.7465221], [-88.1046901, 41.7465258], [-88.1046797, 41.7465319], [-88.1046754, 41.7465373], [-88.1046701, 41.7465435], [-88.1046611, 41.7465478], [-88.1046506, 41.7465493], [-88.1046438, 41.7465459], [-88.1046388, 41.7465381], [-88.1046296, 41.7465232], [-88.104622, 41.7465272], [-88.1046144, 41.7465312], [-88.1046064, 41.7465356], [-88.1045898, 41.7465182], [-88.104607, 41.7465098], [-88.1045896, 41.7464952], [-88.1046186, 41.7464799], [-88.1045918, 41.7464533], [-88.1046005, 41.7464468]]]}}, {"type": "Feature", "id": 870552602, "properties": {"osm_id": 870552602, "osm_type": "way", "landuse": "grass"}, "geometry": {"type": "Polygon", "coordinates": [[[-88.1048582, 41.7464405], [-88.1048698, 41.7464404], [-88.1048703, 41.746463], [-88.1048676, 41.746469], [-88.1048602, 41.7464727], [-88.1048524, 41.746474], [-88.1047873, 41.7464712], [-88.1047785, 41.7464672], [-88.1047742, 41.746462], [-88.1047735, 41.746454], [-88.104793, 41.7464422], [-88.1048001, 41.7464351], [-88.1048102, 41.7464407], [-88.1048181, 41.7464328], [-88.1048062, 41.7464261], [-88.1048184, 41.746414], [-88.1048225, 41.7464109], [-88.1048575, 41.7464104], [-88.1048582, 41.7464405]]]}}, {"type": "Feature", "id": 870552603, "properties": {"osm_id": 870552603, "osm_type": "way", "landuse": "grass"}, "geometry": {"type": "Polygon", "coordinates": [[[-88.1049591, 41.746368], [-88.1049585, 41.7464392], [-88.1048897, 41.7464389], [-88.1048903, 41.7463677], [-88.1049591, 41.746368]]]}}, {"type": "Feature", "id": 872049554, "properties": {"osm_id": 872049554, "osm_type": "way", "leisure": "pitch"}, "geometry": {"type": "Polygon", "coordinates": [[[-88.1040211, 41.746547], [-88.1040121, 41.7463146], [-88.1041981, 41.7463106], [-88.104207, 41.746543], [-88.1040211, 41.746547]]]}}, {"type": "Feature", "id": 872049555, "properties": {"osm_id": 872049555, "osm_type": "way", "leisure": "pitch"}, "geometry": {"type": "Polygon", "coordinates": [[[-88.1042494, 41.7465405], [-88.1042411, 41.7463094], [-88.1044245, 41.7463057], [-88.1044328, 41.7465368], [-88.1042494, 41.7465405]]]}}, {"type": "Feature", "id": 872049586, "properties": {"osm_id": 872049586, "osm_type": "way", "leisure": "playground"}, "geometry": {"type": "Polygon", "coordinates": [[[-88.1072559, 41.7447701], [-88.1072852, 41.7447433], [-88.1073269, 41.7447266], [-88.107382, 41.7447163], [-88.107427, 41.7447171], [-88.1074602, 41.7447208], [-88.1074883, 41.7447288], [-88.1075084, 41.7447365], [-88.107537, 41.7447563], [-88.1075633, 41.7447856], [-88.1075746, 41.7448112], [-88.1075793, 41.7448391], [-88.1075767, 41.7448704], [-88.1075694, 41.7448944], [-88.1075516, 41.7449194], [-88.1075237, 41.7449431], [-88.1075155, 41.744937], [-88.1075017, 41.74495], [-88.1074813, 41.74493], [-88.1074508, 41.7449199], [-88.1074294, 41.7449153], [-88.1073991, 41.7449157], [-88.1073732, 41.7449175], [-88.1073495, 41.7449254], [-88.1073244, 41.7449357], [-88.1073013, 41.7449576], [-88.1072887, 41.7449514], [-88.1072611, 41.7449312], [-88.1072485, 41.7449172], [-88.1072358, 41.7448968], [-88.1072443, 41.7448769], [-88.1072456, 41.7448458], [-88.1072411, 41.7448241], [-88.1072326, 41.7448029], [-88.1072559, 41.7447701]]]}}, {"type": "Feature", "id": 872049587, "properties": {"osm_id": 872049587, "osm_type": "way", "leisure": "playground"}, "geometry": {"type": "Polygon", "coordinates": [[[-88.1066237, 41.7450759], [-88.1066086, 41.745075], [-88.1065902, 41.745069], [-88.1065764, 41.745058], [-88.1065703, 41.7450474], [-88.106564, 41.7450349], [-88.106552, 41.7450199], [-88.1065412, 41.7450128], [-88.1065307, 41.7450059], [-88.1065109, 41.7449987], [-88.1064965, 41.7449865], [-88.1064822, 41.7449628], [-88.1064825, 41.7449463], [-88.1064897, 41.7449319], [-88.1065121, 41.7449215], [-88.1065461, 41.7449121], [-88.1065616, 41.7449072], [-88.1065725, 41.7448941], [-88.1065813, 41.7448813], [-88.1065939, 41.7448725], [-88.1066108, 41.7448671], [-88.1066344, 41.7448669], [-88.1066493, 41.7448677], [-88.1066684, 41.7448721], [-88.1066823, 41.7448794], [-88.1066954, 41.744887], [-88.1067058, 41.7448947], [-88.1067187, 41.7449103], [-88.1067271, 41.7449272], [-88.1067294, 41.7449427], [-88.1067291, 41.7449591], [-88.1067228, 41.7449772], [-88.1067101, 41.7449932], [-88.1066963, 41.7450053], [-88.106684, 41.7450199], [-88.1066773, 41.7450331], [-88.1066744, 41.7450451], [-88.106675, 41.7450613], [-88.1066625, 41.745065], [-88.106656, 41.7450675], [-88.1066392, 41.745074], [-88.1066237, 41.7450759]]]}}, {"type": "Feature", "id": 872049592, "properties": {"osm_id": 872049592, "osm_type": "way", "leisure": "pitch"}, "geometry": {"type": "Polygon", "coordinates": [[[-88.1069158, 41.7449997], [-88.1069164, 41.7450208], [-88.106888, 41.7450213], [-88.1068874, 41.7450002], [-88.1069158, 41.7449997]]]}}, {"type": "Feature", "id": 872049593, "properties": {"osm_id": 872049593, "osm_type": "way", "leisure": "pitch"}, "geometry": {"type": "Polygon", "coordinates": [[[-88.1069563, 41.7449989], [-88.1069569, 41.74502], [-88.1069284, 41.7450205], [-88.1069278, 41.7449993], [-88.1069563, 41.7449989]]]}}, {"type": "Feature", "id": 872049594, "properties": {"osm_id": 872049594, "osm_type": "way", "leisure": "pitch"}, "geometry": {"type": "Polygon", "coordinates": [[[-88.1069578, 41.7450385], [-88.1069584, 41.7450596], [-88.10693, 41.74506], [-88.1069293, 41.7450389], [-88.1069578, 41.7450385]]]}}, {"type": "Feature", "id": 872049595, "properties": {"osm_id": 872049595, "osm_type": "way", "leisure": "pitch"}, "geometry": {"type": "Polygon", "coordinates": [[[-88.1069163, 41.7450386], [-88.1069169, 41.7450597], [-88.1068885, 41.7450602], [-88.1068878, 41.745039], [-88.1069163, 41.7450386]]]}}, {"type": "Feature", "id": 872052961, "properties": {"osm_id": 872052961, "osm_type": "way", "landuse": "grass"}, "geometry": {"type": "Polygon", "coordinates": [[[-88.1075732, 41.7452234], [-88.1075706, 41.745162], [-88.1075816, 41.7451371], [-88.107603, 41.7451141], [-88.1076272, 41.7450976], [-88.1076613, 41.7450882], [-88.1077022, 41.7450897], [-88.1077428, 41.7450992], [-88.1077726, 41.7451194], [-88.1077991, 41.7451526], [-88.1077999, 41.7452184], [-88.1075732, 41.7452234]]]}}, {"type": "Feature", "id": 872052962, "properties": {"osm_id": 872052962, "osm_type": "way", "landuse": "grass"}, "geometry": {"type": "Polygon", "coordinates": [[[-88.1073089, 41.7452302], [-88.1073061, 41.7451722], [-88.1073117, 41.7451534], [-88.1073236, 41.7451306], [-88.1073365, 41.7451184], [-88.1073638, 41.7451044], [-88.1073817, 41.7450966], [-88.1074103, 41.7450958], [-88.1074408, 41.7450969], [-88.1074647, 41.7451033], [-88.1074914, 41.7451153], [-88.1075098, 41.7451319], [-88.1075225, 41.745149], [-88.1075284, 41.7451792], [-88.1075344, 41.7452246], [-88.1073089, 41.7452302]]]}}, {"type": "Feature", "id": 872052963, "properties": {"osm_id": 872052963, "osm_type": "way", "landuse": "grass"}, "geometry": {"type": "Polygon", "coordinates": [[[-88.1070474, 41.7452106], [-88.1070469, 41.7451934], [-88.1070506, 41.745167], [-88.1070591, 41.745148], [-88.1070706, 41.7451313], [-88.1070966, 41.7451161], [-88.1071131, 41.7451066], [-88.1071418, 41.7451004], [-88.1071683, 41.7451026], [-88.1072047, 41.7451096], [-88.1072361, 41.7451285], [-88.1072571, 41.7451438], [-88.107266, 41.7451711], [-88.107272, 41.7452051], [-88.1070474, 41.7452106]]]}}, {"type": "Feature", "id": 872052964, "properties": {"osm_id": 872052964, "osm_type": "way", "landuse": "grass"}, "geometry": {"type": "Polygon", "coordinates": [[[-88.1067914, 41.7452435], [-88.1067864, 41.7451984], [-88.1067869, 41.7451749], [-88.1067966, 41.7451489], [-88.1068204, 41.7451303], [-88.106838, 41.7451183], [-88.1068646, 41.7451093], [-88.1068962, 41.7451089], [-88.1069354, 41.7451127], [-88.1069685, 41.7451309], [-88.1069931, 41.7451539], [-88.1070046, 41.7451808], [-88.107008, 41.7452383], [-88.1067914, 41.7452435]]]}}, {"type": "Feature", "id": 872052965, "properties": {"osm_id": 872052965, "osm_type": "way", "landuse": "grass"}, "geometry": {"type": "Polygon", "coordinates": [[[-88.1065173, 41.7452515], [-88.1065149, 41.7451904], [-88.1065225, 41.7451666], [-88.1065412, 41.7451475], [-88.1065661, 41.7451301], [-88.1065989, 41.7451172], [-88.1066409, 41.745115], [-88.1066837, 41.745127], [-88.1067156, 41.7451452], [-88.1067425, 41.7451788], [-88.1067488, 41.7452484], [-88.1065173, 41.7452515]]]}}, {"type": "Feature", "id": 878780498, "properties": {"osm_id": 878780498, "osm_type": "way", "landuse": "grass"}, "geometry": {"type": "Polygon", "coordinates": [[[-88.1181122, 41.7693154], [-88.1180904, 41.7693007], [-88.1180802, 41.7692802], [-88.118084, 41.7692584], [-88.118101, 41.7692405], [-88.1181271, 41.7692305], [-88.1181566, 41.7692307], [-88.1181825, 41.7692411], [-88.1181989, 41.7692593], [-88.1182022, 41.769281], [-88.1181915, 41.7693015], [-88.1181693, 41.7693159], [-88.1181407, 41.7693209], [-88.1181122, 41.7693154]]]}}, {"type": "Feature", "id": 878780518, "properties": {"osm_id": 878780518, "osm_type": "way", "landuse": "grass"}, "geometry": {"type": "Polygon", "coordinates": [[[-88.1216135, 41.7710806], [-88.1215826, 41.7710566], [-88.1215847, 41.7710306], [-88.1216007, 41.7710111], [-88.1216323, 41.7710071], [-88.1216772, 41.7710111], [-88.1218891, 41.7710916], [-88.1219112, 41.7711111], [-88.1219193, 41.7711286], [-88.1219152, 41.7711456], [-88.1219012, 41.7711611], [-88.1218717, 41.7711687], [-88.1218549, 41.7711692], [-88.1217704, 41.7711436], [-88.1216135, 41.7710806]]]}}, {"type": "Feature", "id": 878780579, "properties": {"osm_id": 878780579, "osm_type": "way", "landuse": "grass"}, "geometry": {"type": "Polygon", "coordinates": [[[-88.1214813, 41.7721626], [-88.1214654, 41.7721678], [-88.1214482, 41.772169], [-88.1214312, 41.7721662], [-88.1214163, 41.7721597], [-88.1214048, 41.77215], [-88.1213979, 41.7721381], [-88.1213962, 41.7721253], [-88.1213999, 41.7721126], [-88.1214087, 41.7721015], [-88.1214217, 41.7720929], [-88.1214376, 41.7720877], [-88.1214549, 41.7720865], [-88.1214718, 41.7720893], [-88.1214868, 41.7720958], [-88.1214983, 41.7721055], [-88.1215052, 41.7721174], [-88.1215069, 41.7721303], [-88.1215031, 41.7721429], [-88.1214943, 41.772154], [-88.1214813, 41.7721626]]]}}, {"type": "Feature", "id": 878780580, "properties": {"osm_id": 878780580, "osm_type": "way", "landuse": "grass"}, "geometry": {"type": "Polygon", "coordinates": [[[-88.1216111, 41.773727], [-88.1216088, 41.7737398], [-88.1216012, 41.7737514], [-88.1215893, 41.7737607], [-88.121574, 41.7737668], [-88.121557, 41.7737691], [-88.1215399, 41.7737673], [-88.1215243, 41.7737617], [-88.1215118, 41.7737528], [-88.1215037, 41.7737414], [-88.1215006, 41.7737287], [-88.1215029, 41.7737159], [-88.1215105, 41.7737043], [-88.1215224, 41.773695], [-88.1215377, 41.7736889], [-88.1215547, 41.7736866], [-88.1215718, 41.7736884], [-88.1215874, 41.773694], [-88.1215999, 41.7737029], [-88.121608, 41.7737143], [-88.1216111, 41.773727]]]}}, {"type": "Feature", "id": 878780581, "properties": {"osm_id": 878780581, "osm_type": "way", "landuse": "grass"}, "geometry": {"type": "Polygon", "coordinates": [[[-88.1149989, 41.7710335], [-88.1149973, 41.7710461], [-88.114991, 41.7710579], [-88.1149805, 41.7710679], [-88.1149667, 41.7710753], [-88.1149506, 41.7710794], [-88.1149336, 41.77108], [-88.1149171, 41.7710771], [-88.1149024, 41.7710707], [-88.1148906, 41.7710616], [-88.1148828, 41.7710503], [-88.1148796, 41.7710379], [-88.1148812, 41.7710252], [-88.1148875, 41.7710135], [-88.114898, 41.7710035], [-88.1149118, 41.7709961], [-88.1149279, 41.770992], [-88.1149449, 41.7709914], [-88.1149614, 41.7709943], [-88.1149761, 41.7710007], [-88.1149878, 41.7710098], [-88.1149956, 41.7710211], [-88.1149989, 41.7710335]]]}}, {"type": "Feature", "id": 878780582, "properties": {"osm_id": 878780582, "osm_type": "way", "landuse": "grass"}, "geometry": {"type": "Polygon", "coordinates": [[[-88.1138213, 41.7700375], [-88.1138096, 41.7700271], [-88.113803, 41.7700144], [-88.1138023, 41.7700007], [-88.1138076, 41.7699877], [-88.1138183, 41.7699766], [-88.1138333, 41.7699687], [-88.1138508, 41.7699649], [-88.1138691, 41.7699655], [-88.1138861, 41.7699705], [-88.1139, 41.7699794], [-88.1139093, 41.7699912], [-88.113913, 41.7700045], [-88.1139106, 41.7700181], [-88.1139025, 41.7700303], [-88.1138895, 41.7700399], [-88.1138731, 41.7700458], [-88.1138549, 41.7700474], [-88.113837, 41.7700446], [-88.1138213, 41.7700375]]]}}, {"type": "Feature", "id": 878780583, "properties": {"osm_id": 878780583, "osm_type": "way", "landuse": "grass"}, "geometry": {"type": "Polygon", "coordinates": [[[-88.1137138, 41.7709833], [-88.1136995, 41.7709913], [-88.1136826, 41.7709957], [-88.1136647, 41.7709959], [-88.1136475, 41.7709921], [-88.1136329, 41.7709844], [-88.1136221, 41.7709737], [-88.1136162, 41.7709611], [-88.1136159, 41.7709478], [-88.1136211, 41.770935], [-88.1136314, 41.7709241], [-88.1136457, 41.770916], [-88.1136626, 41.7709117], [-88.1136805, 41.7709114], [-88.1136976, 41.7709153], [-88.1137123, 41.770923], [-88.1137231, 41.7709336], [-88.1137289, 41.7709462], [-88.1137292, 41.7709596], [-88.113724, 41.7709724], [-88.1137138, 41.7709833]]]}}, {"type": "Feature", "id": 878780661, "properties": {"osm_id": 878780661, "osm_type": "way", "landuse": "grass"}, "geometry": {"type": "Polygon", "coordinates": [[[-88.1117872, 41.7783363], [-88.1117812, 41.7783488], [-88.1117624, 41.7783578], [-88.1117423, 41.7783568], [-88.1117228, 41.7783423], [-88.1116095, 41.7781342], [-88.1116008, 41.7780992], [-88.1116107, 41.7780872], [-88.1116283, 41.7780797], [-88.1116538, 41.7780862], [-88.1116665, 41.7781107], [-88.1116967, 41.7781697], [-88.1117336, 41.7782338], [-88.1117825, 41.7783293], [-88.1117872, 41.7783363]]]}}, {"type": "Feature", "id": 878780670, "properties": {"osm_id": 878780670, "osm_type": "way", "landuse": "grass"}, "geometry": {"type": "Polygon", "coordinates": [[[-88.1159091, 41.7768801], [-88.1157475, 41.776469], [-88.1157522, 41.7764575], [-88.1157643, 41.776448], [-88.1157757, 41.7764435], [-88.1157938, 41.776445], [-88.1158058, 41.776453], [-88.1159715, 41.7768766], [-88.1159674, 41.7768881], [-88.115952, 41.7768976], [-88.1159373, 41.7769011], [-88.1159198, 41.7768956], [-88.1159091, 41.7768801]]]}}, {"type": "Feature", "id": 878780677, "properties": {"osm_id": 878780677, "osm_type": "way", "landuse": "grass"}, "geometry": {"type": "Polygon", "coordinates": [[[-88.1160278, 41.7771771], [-88.1160083, 41.7771301], [-88.1160144, 41.7771151], [-88.1160271, 41.7771051], [-88.1160492, 41.7771056], [-88.1160687, 41.7771131], [-88.116123, 41.7772431], [-88.1161626, 41.7773602], [-88.1161559, 41.7773757], [-88.1161351, 41.7773822], [-88.116117, 41.7773792], [-88.1161022, 41.7773697], [-88.1160861, 41.7773297], [-88.1160278, 41.7771771]]]}}, {"type": "Feature", "id": 878780702, "properties": {"osm_id": 878780702, "osm_type": "way", "landuse": "grass"}, "geometry": {"type": "Polygon", "coordinates": [[[-88.1227055, 41.7758572], [-88.1226686, 41.7757527], [-88.1226512, 41.7756992], [-88.1226414, 41.7756682], [-88.1226502, 41.7756582], [-88.1226585, 41.7756557], [-88.122681, 41.7756577], [-88.1226887, 41.7756882], [-88.1227199, 41.77578], [-88.1227471, 41.775848], [-88.1227504, 41.7758612], [-88.1227467, 41.7758665], [-88.1227333, 41.7758725], [-88.1227192, 41.7758692], [-88.1227055, 41.7758572]]]}}, {"type": "Feature", "id": 878789476, "properties": {"osm_id": 878789476, "osm_type": "way", "landuse": "grass"}, "geometry": {"type": "Polygon", "coordinates": [[[-88.1168727, 41.7693697], [-88.1168439, 41.7693787], [-88.1168251, 41.7693747], [-88.1167956, 41.7693632], [-88.1167862, 41.7693432], [-88.1167822, 41.7693162], [-88.1168103, 41.7692947], [-88.1168566, 41.7692727], [-88.1168827, 41.7692722], [-88.1169069, 41.7692812], [-88.1169216, 41.7692972], [-88.1169263, 41.7693132], [-88.116923, 41.7693302], [-88.1169049, 41.7693507], [-88.1168727, 41.7693697]]]}}, {"type": "Feature", "id": 878789488, "properties": {"osm_id": 878789488, "osm_type": "way", "landuse": "grass"}, "geometry": {"type": "Polygon", "coordinates": [[[-88.1182708, 41.7719453], [-88.1182842, 41.7719323], [-88.1183023, 41.7719273], [-88.1183338, 41.7719273], [-88.1183539, 41.7719338], [-88.1183747, 41.7719513], [-88.1183787, 41.7719773], [-88.1183311, 41.7721468], [-88.118315, 41.7721589], [-88.1182869, 41.7721659], [-88.1182621, 41.7721659], [-88.1182339, 41.7721529], [-88.1182238, 41.7721383], [-88.1182487, 41.7720088], [-88.1182708, 41.7719453]]]}}, {"type": "Feature", "id": 878789543, "properties": {"osm_id": 878789543, "osm_type": "way", "landuse": "grass"}, "geometry": {"type": "Polygon", "coordinates": [[[-88.1233787, 41.7694598], [-88.1233708, 41.7694723], [-88.1233578, 41.7694822], [-88.123342, 41.7694881], [-88.1233245, 41.76949], [-88.1233071, 41.7694876], [-88.1232916, 41.7694813], [-88.1232796, 41.7694716], [-88.1232724, 41.7694596], [-88.1232706, 41.7694464], [-88.1232744, 41.7694336], [-88.1232836, 41.7694223], [-88.1232978, 41.7694134], [-88.1233152, 41.7694085], [-88.1233337, 41.7694083], [-88.1233513, 41.7694126], [-88.123366, 41.769421], [-88.1233762, 41.7694326], [-88.1233805, 41.7694461], [-88.1233787, 41.7694598]]]}}, {"type": "Feature", "id": 878793616, "properties": {"osm_id": 878793616, "osm_type": "way", "landuse": "grass"}, "geometry": {"type": "Polygon", "coordinates": [[[-88.1220509, 41.7671545], [-88.1220497, 41.7671678], [-88.1220426, 41.76718], [-88.1220311, 41.7671893], [-88.1220163, 41.7671955], [-88.1219996, 41.7671978], [-88.1219828, 41.7671961], [-88.1219676, 41.7671905], [-88.1219555, 41.7671816], [-88.1219479, 41.7671703], [-88.1219454, 41.7671578], [-88.1219484, 41.7671453], [-88.121957, 41.7671337], [-88.1219704, 41.7671249], [-88.1219868, 41.7671198], [-88.1220046, 41.7671192], [-88.1220217, 41.767123], [-88.1220361, 41.7671308], [-88.1220463, 41.7671417], [-88.1220509, 41.7671545]]]}}, {"type": "Feature", "id": 878794086, "properties": {"osm_id": 878794086, "osm_type": "way", "landuse": "grass"}, "geometry": {"type": "Polygon", "coordinates": [[[-88.1191498, 41.7684436], [-88.1191308, 41.768442], [-88.119114, 41.7684361], [-88.1191007, 41.7684264], [-88.1190922, 41.7684141], [-88.1190894, 41.7684004], [-88.1190927, 41.7683868], [-88.1191016, 41.7683747], [-88.1191153, 41.7683653], [-88.1191322, 41.7683597], [-88.1191507, 41.7683584], [-88.1191693, 41.7683618], [-88.1191853, 41.7683695], [-88.119197, 41.7683807], [-88.1192032, 41.7683942], [-88.119203, 41.7684084], [-88.1191966, 41.7684219], [-88.1191846, 41.7684329], [-88.1191684, 41.7684405], [-88.1191498, 41.7684436]]]}}, {"type": "Feature", "id": 878797239, "properties": {"osm_id": 878797239, "osm_type": "way", "landuse": "grass"}, "geometry": {"type": "Polygon", "coordinates": [[[-88.113143, 41.7680865], [-88.1131473, 41.7681011], [-88.1131447, 41.7681159], [-88.1131366, 41.768128], [-88.113124, 41.7681376], [-88.1131079, 41.7681438], [-88.1130901, 41.768146], [-88.1130722, 41.768144], [-88.113056, 41.768138], [-88.1130432, 41.7681285], [-88.1130348, 41.7681165], [-88.1130319, 41.7681032], [-88.1130346, 41.7680899], [-88.1130439, 41.7680767], [-88.1130587, 41.7680666], [-88.1130772, 41.7680609], [-88.1130972, 41.7680602], [-88.1131164, 41.7680648], [-88.1131322, 41.7680739], [-88.113143, 41.7680865]]]}}, {"type": "Feature", "id": 878797240, "properties": {"osm_id": 878797240, "osm_type": "way", "landuse": "grass"}, "geometry": {"type": "Polygon", "coordinates": [[[-88.1146787, 41.7665128], [-88.1146605, 41.7665186], [-88.1146408, 41.7665194], [-88.1146219, 41.7665151], [-88.1146061, 41.7665062], [-88.1145953, 41.7664939], [-88.1145908, 41.7664795], [-88.1145932, 41.7664649], [-88.1146021, 41.7664518], [-88.1146166, 41.7664417], [-88.1146348, 41.7664359], [-88.1146545, 41.7664351], [-88.1146734, 41.7664394], [-88.1146892, 41.7664482], [-88.1147, 41.7664606], [-88.1147045, 41.766475], [-88.1147021, 41.7664896], [-88.1146932, 41.7665027], [-88.1146787, 41.7665128]]]}}, {"type": "Feature", "id": 878797254, "properties": {"osm_id": 878797254, "osm_type": "way", "landuse": "grass"}, "geometry": {"type": "Polygon", "coordinates": [[[-88.1134355, 41.7665833], [-88.1134159, 41.7665817], [-88.1133985, 41.7665757], [-88.1133847, 41.7665658], [-88.1133758, 41.7665532], [-88.1133727, 41.7665391], [-88.1133759, 41.766525], [-88.113385, 41.7665124], [-88.113399, 41.7665027], [-88.1134164, 41.7664968], [-88.1134355, 41.7664953], [-88.1134547, 41.7664987], [-88.1134713, 41.7665066], [-88.1134835, 41.7665181], [-88.11349, 41.766532], [-88.11349, 41.7665466], [-88.1134835, 41.7665605], [-88.1134713, 41.766572], [-88.1134547, 41.7665799], [-88.1134355, 41.7665833]]]}}, {"type": "Feature", "id": 878972130, "properties": {"osm_id": 878972130, "osm_type": "way", "landuse": "grass"}, "geometry": {"type": "Polygon", "coordinates": [[[-88.1116619, 41.755007], [-88.1116466, 41.7550077], [-88.1116317, 41.7550053], [-88.1116182, 41.7550001], [-88.1116071, 41.7549923], [-88.1115993, 41.7549825], [-88.1115952, 41.7549716], [-88.1115953, 41.7549602], [-88.1115995, 41.7549493], [-88.1116075, 41.7549396], [-88.1116186, 41.7549318], [-88.1116322, 41.7549267], [-88.1116471, 41.7549244], [-88.1116623, 41.7549252], [-88.1116767, 41.7549291], [-88.1116891, 41.7549357], [-88.1116987, 41.7549445], [-88.1117047, 41.754955], [-88.1117067, 41.7549663], [-88.1117045, 41.7549775], [-88.1116984, 41.7549879], [-88.1116887, 41.7549967], [-88.1116762, 41.7550032], [-88.1116619, 41.755007]]]}}, {"type": "Feature", "id": 878972157, "properties": {"osm_id": 878972157, "osm_type": "way", "landuse": "grass"}, "geometry": {"type": "Polygon", "coordinates": [[[-88.1175268, 41.7611375], [-88.1175257, 41.7611488], [-88.1175203, 41.7611595], [-88.1175111, 41.7611686], [-88.1174989, 41.7611754], [-88.1174846, 41.7611793], [-88.1174694, 41.7611801], [-88.1174545, 41.7611776], [-88.1174412, 41.7611722], [-88.1174304, 41.7611641], [-88.1174232, 41.7611541], [-88.11742, 41.761143], [-88.1174211, 41.7611317], [-88.1174265, 41.761121], [-88.1174356, 41.7611119], [-88.1174478, 41.7611051], [-88.1174621, 41.7611012], [-88.1174773, 41.7611004], [-88.1174922, 41.7611029], [-88.1175056, 41.7611083], [-88.1175163, 41.7611164], [-88.1175236, 41.7611264], [-88.1175268, 41.7611375]]]}}, {"type": "Feature", "id": 878972158, "properties": {"osm_id": 878972158, "osm_type": "way", "landuse": "grass"}, "geometry": {"type": "Polygon", "coordinates": [[[-88.118782, 41.7614038], [-88.1187749, 41.7614125], [-88.1187651, 41.7614195], [-88.1187532, 41.7614244], [-88.11874, 41.7614268], [-88.1187264, 41.7614266], [-88.1187133, 41.7614238], [-88.1187016, 41.7614185], [-88.1186922, 41.7614112], [-88.1186856, 41.7614023], [-88.1186824, 41.7613925], [-88.1186827, 41.7613823], [-88.1186865, 41.7613726], [-88.1186935, 41.7613639], [-88.1187033, 41.7613568], [-88.1187152, 41.7613519], [-88.1187285, 41.7613495], [-88.1187421, 41.7613497], [-88.1187551, 41.7613525], [-88.1187668, 41.7613578], [-88.1187762, 41.7613651], [-88.1187828, 41.761374], [-88.118786, 41.7613839], [-88.1187858, 41.761394], [-88.118782, 41.7614038]]]}}, {"type": "Feature", "id": 878972159, "properties": {"osm_id": 878972159, "osm_type": "way", "landuse": "grass"}, "geometry": {"type": "Polygon", "coordinates": [[[-88.1167067, 41.7603269], [-88.1166968, 41.7603182], [-88.1166905, 41.7603078], [-88.1166885, 41.7602965], [-88.1166908, 41.7602853], [-88.1166972, 41.7602749], [-88.1167073, 41.7602664], [-88.1167203, 41.7602603], [-88.116735, 41.7602572], [-88.1167502, 41.7602573], [-88.1167649, 41.7602606], [-88.1167776, 41.7602668], [-88.1167876, 41.7602755], [-88.1167938, 41.7602859], [-88.1167958, 41.7602972], [-88.1167936, 41.7603084], [-88.1167871, 41.7603188], [-88.116777, 41.7603273], [-88.1167641, 41.7603334], [-88.1167494, 41.7603365], [-88.1167341, 41.7603364], [-88.1167195, 41.7603331], [-88.1167067, 41.7603269]]]}}, {"type": "Feature", "id": 878972183, "properties": {"osm_id": 878972183, "osm_type": "way", "landuse": "grass"}, "geometry": {"type": "Polygon", "coordinates": [[[-88.1152035, 41.7575387], [-88.1151919, 41.7575445], [-88.1151787, 41.7575478], [-88.1151648, 41.7575484], [-88.1151511, 41.7575463], [-88.1151387, 41.7575417], [-88.1151282, 41.7575348], [-88.1151205, 41.7575261], [-88.1151161, 41.7575163], [-88.1151153, 41.7575059], [-88.115118, 41.7574957], [-88.1151243, 41.7574864], [-88.1151335, 41.7574786], [-88.1151451, 41.7574729], [-88.1151583, 41.7574696], [-88.1151722, 41.757469], [-88.1151859, 41.757471], [-88.1151984, 41.7574757], [-88.1152088, 41.7574825], [-88.1152165, 41.7574912], [-88.1152209, 41.7575011], [-88.1152218, 41.7575115], [-88.115219, 41.7575216], [-88.1152128, 41.7575309], [-88.1152035, 41.7575387]]]}}, {"type": "Feature", "id": 878972184, "properties": {"osm_id": 878972184, "osm_type": "way", "landuse": "grass"}, "geometry": {"type": "Polygon", "coordinates": [[[-88.1119157, 41.7560694], [-88.1119043, 41.7560751], [-88.1118914, 41.7560784], [-88.1118778, 41.7560793], [-88.1118643, 41.7560775], [-88.1118518, 41.7560734], [-88.1118411, 41.756067], [-88.1118329, 41.7560589], [-88.1118276, 41.7560495], [-88.1118256, 41.7560394], [-88.1118271, 41.7560293], [-88.1118318, 41.7560197], [-88.1118397, 41.7560113], [-88.11185, 41.7560047], [-88.1118623, 41.7560001], [-88.1118756, 41.755998], [-88.1118893, 41.7559985], [-88.1119024, 41.7560014], [-88.1119141, 41.7560067], [-88.1119236, 41.756014], [-88.1119305, 41.7560229], [-88.1119341, 41.7560327], [-88.1119344, 41.7560429], [-88.1119312, 41.7560528], [-88.1119249, 41.7560619], [-88.1119157, 41.7560694]]]}}, {"type": "Feature", "id": 878972185, "properties": {"osm_id": 878972185, "osm_type": "way", "landuse": "grass"}, "geometry": {"type": "Polygon", "coordinates": [[[-88.1131849, 41.7555386], [-88.1131733, 41.7555474], [-88.1131588, 41.7555533], [-88.1131426, 41.7555558], [-88.1131262, 41.7555545], [-88.1131109, 41.7555497], [-88.1130983, 41.7555418], [-88.1130893, 41.7555315], [-88.1130848, 41.7555196], [-88.1130852, 41.7555073], [-88.1130905, 41.7554956], [-88.1131002, 41.7554856], [-88.1131133, 41.7554781], [-88.1131289, 41.7554739], [-88.1131454, 41.7554733], [-88.1131614, 41.7554763], [-88.1131755, 41.7554828], [-88.1131864, 41.755492], [-88.1131932, 41.7555032], [-88.1131953, 41.7555155], [-88.1131924, 41.7555276], [-88.1131849, 41.7555386]]]}}, {"type": "Feature", "id": 878972186, "properties": {"osm_id": 878972186, "osm_type": "way", "landuse": "grass"}, "geometry": {"type": "Polygon", "coordinates": [[[-88.1146508, 41.7552249], [-88.1146436, 41.7552331], [-88.1146339, 41.7552398], [-88.1146224, 41.7552446], [-88.1146097, 41.7552471], [-88.1145965, 41.7552474], [-88.1145836, 41.7552452], [-88.1145718, 41.7552408], [-88.1145617, 41.7552345], [-88.114554, 41.7552265], [-88.114549, 41.7552174], [-88.1145471, 41.7552077], [-88.1145484, 41.7551979], [-88.1145528, 41.7551886], [-88.11456, 41.7551804], [-88.1145697, 41.7551737], [-88.1145813, 41.7551689], [-88.114594, 41.7551663], [-88.1146072, 41.7551661], [-88.11462, 41.7551683], [-88.1146319, 41.7551726], [-88.1146419, 41.755179], [-88.1146497, 41.7551869], [-88.1146546, 41.7551961], [-88.1146565, 41.7552058], [-88.1146552, 41.7552156], [-88.1146508, 41.7552249]]]}}, {"type": "Feature", "id": 878972190, "properties": {"osm_id": 878972190, "osm_type": "way", "landuse": "grass"}, "geometry": {"type": "Polygon", "coordinates": [[[-88.1153548, 41.755575], [-88.1152669, 41.755683], [-88.1151496, 41.7558031], [-88.1151429, 41.7558119], [-88.1151212, 41.7558141], [-88.1151259, 41.7557986], [-88.1151755, 41.755754], [-88.1152551, 41.7556683], [-88.1153054, 41.755603], [-88.1153572, 41.7555324], [-88.1153727, 41.7554684], [-88.11538398600428, 41.75542444070155], [-88.11541558556385, 41.75547546363917], [-88.1153548, 41.755575]]]}}, {"type": "Feature", "id": 878972191, "properties": {"osm_id": 878972191, "osm_type": "way", "landuse": "grass"}, "geometry": {"type": "Polygon", "coordinates": [[[-88.1143212, 41.7564429], [-88.1142562, 41.7564789], [-88.1142072, 41.7564989], [-88.1141831, 41.7565014], [-88.1141771, 41.7564929], [-88.1141824, 41.7564784], [-88.1142186, 41.7564399], [-88.1142622, 41.7564058], [-88.1147464, 41.7560472], [-88.1148349, 41.7559992], [-88.1148597, 41.7559957], [-88.1148664, 41.7560067], [-88.114861, 41.7560207], [-88.1148237, 41.7560573], [-88.1147894, 41.7560862], [-88.1143212, 41.7564429]]]}}, {"type": "Feature", "id": 878972192, "properties": {"osm_id": 878972192, "osm_type": "way", "landuse": "grass"}, "geometry": {"type": "Polygon", "coordinates": [[[-88.114216, 41.756671], [-88.1142019, 41.7566474], [-88.1142066, 41.7566349], [-88.1142166, 41.7566239], [-88.1142307, 41.7566114], [-88.1142461, 41.7566064], [-88.1142723, 41.7566074], [-88.1142937, 41.7566214], [-88.1143554, 41.7566745], [-88.1143675, 41.7566915], [-88.1143635, 41.7567095], [-88.1143501, 41.7567215], [-88.1143326, 41.75673], [-88.1143118, 41.756732], [-88.1142844, 41.756723], [-88.114232, 41.756683], [-88.114216, 41.756671]]]}}, {"type": "Feature", "id": 878972193, "properties": {"osm_id": 878972193, "osm_type": "way", "landuse": "grass"}, "geometry": {"type": "Polygon", "coordinates": [[[-88.1135454, 41.7571131], [-88.1134985, 41.7571577], [-88.113475, 41.7571757], [-88.1134578, 41.7571794], [-88.1134462, 41.7571674], [-88.1134548, 41.7571534], [-88.1134804, 41.7570826], [-88.1135313, 41.7570311], [-88.1136245, 41.7569351], [-88.1137157, 41.756842], [-88.1138203, 41.7567425], [-88.1138773, 41.7567105], [-88.1139062, 41.7566985], [-88.1139209, 41.7567025], [-88.1139209, 41.7567135], [-88.1139135, 41.75673], [-88.1138619, 41.7567895], [-88.1137781, 41.7568685], [-88.1136198, 41.7570256], [-88.113585, 41.7570661], [-88.1135454, 41.7571131]]]}}, {"type": "Feature", "id": 878972194, "properties": {"osm_id": 878972194, "osm_type": "way", "landuse": "grass"}, "geometry": {"type": "Polygon", "coordinates": [[[-88.1131625, 41.7575683], [-88.1131746, 41.7575273], [-88.1132081, 41.7574748], [-88.1132597, 41.7574188], [-88.1132846, 41.7574043], [-88.113298, 41.7573978], [-88.113304, 41.7574083], [-88.1133027, 41.7574283], [-88.1132973, 41.7574583], [-88.1131981, 41.7576504], [-88.1131283, 41.7578089], [-88.113068, 41.758006], [-88.1130619, 41.7580175], [-88.1130472, 41.758024], [-88.1130351, 41.7580215], [-88.1130284, 41.7580145], [-88.1130874, 41.757832], [-88.1131297, 41.7576909], [-88.1131625, 41.7575683]]]}}, {"type": "Feature", "id": 878972220, "properties": {"osm_id": 878972220, "osm_type": "way", "landuse": "grass"}, "geometry": {"type": "Polygon", "coordinates": [[[-88.110662, 41.7561092], [-88.1106828, 41.7561042], [-88.1107029, 41.7561047], [-88.1107244, 41.7561092], [-88.1107418, 41.7561187], [-88.1107532, 41.7561377], [-88.1107546, 41.7561557], [-88.1106298, 41.7562983], [-88.110603, 41.7563168], [-88.1105896, 41.7563198], [-88.1105688, 41.7563213], [-88.110548, 41.7563143], [-88.1105313, 41.7563013], [-88.1105226, 41.7562863], [-88.1105205, 41.7562713], [-88.1105373, 41.7562433], [-88.1106466, 41.7561222], [-88.110662, 41.7561092]]]}}, {"type": "Feature", "id": 878972227, "properties": {"osm_id": 878972227, "osm_type": "way", "landuse": "grass"}, "geometry": {"type": "Polygon", "coordinates": [[[-88.1110384, 41.7584347], [-88.1110181, 41.7584358], [-88.1109989, 41.758431], [-88.1109836, 41.7584211], [-88.1109745, 41.7584076], [-88.110973, 41.7583925], [-88.1109794, 41.7583782], [-88.1109927, 41.7583667], [-88.1110108, 41.75836], [-88.111031, 41.7583589], [-88.1110503, 41.7583636], [-88.1110656, 41.7583735], [-88.1110747, 41.7583871], [-88.1110761, 41.7584021], [-88.1110698, 41.7584165], [-88.1110565, 41.7584279], [-88.1110384, 41.7584347]]]}}, {"type": "Feature", "id": 878972238, "properties": {"osm_id": 878972238, "osm_type": "way", "landuse": "grass"}, "geometry": {"type": "Polygon", "coordinates": [[[-88.1096721, 41.7570548], [-88.1096575, 41.7570635], [-88.1096397, 41.7570679], [-88.109621, 41.7570675], [-88.1096036, 41.7570624], [-88.1095896, 41.7570532], [-88.1095807, 41.7570409], [-88.1095779, 41.7570271], [-88.1095816, 41.7570134], [-88.1095914, 41.7570015], [-88.109606, 41.7569928], [-88.1096238, 41.7569884], [-88.1096425, 41.7569888], [-88.1096599, 41.7569939], [-88.1096739, 41.7570031], [-88.1096828, 41.7570154], [-88.1096856, 41.7570292], [-88.1096819, 41.7570429], [-88.1096721, 41.7570548]]]}}, {"type": "Feature", "id": 878972240, "properties": {"osm_id": 878972240, "osm_type": "way", "landuse": "grass"}, "geometry": {"type": "Polygon", "coordinates": [[[-88.1101068, 41.7575403], [-88.1100941, 41.7575278], [-88.1100961, 41.7575138], [-88.1100974, 41.7575038], [-88.1101055, 41.7574883], [-88.1101242, 41.7574788], [-88.1101531, 41.7574703], [-88.1101752, 41.7574778], [-88.1103113, 41.7575598], [-88.1103174, 41.7575763], [-88.1103154, 41.7575929], [-88.1103066, 41.7576094], [-88.1102905, 41.7576184], [-88.1102691, 41.7576239], [-88.1102449, 41.7576204], [-88.1101383, 41.7575583], [-88.1101068, 41.7575403]]]}}, {"type": "Feature", "id": 878972243, "properties": {"osm_id": 878972243, "osm_type": "way", "landuse": "grass"}, "geometry": {"type": "Polygon", "coordinates": [[[-88.1101102, 41.7595401], [-88.1101336, 41.7595391], [-88.1101611, 41.7595406], [-88.1101745, 41.7595466], [-88.110192, 41.7595587], [-88.110196, 41.7595762], [-88.1101886, 41.7595952], [-88.109968, 41.7597707], [-88.1099486, 41.7597797], [-88.1099211, 41.7597812], [-88.1099063, 41.7597772], [-88.1098875, 41.7597632], [-88.1098788, 41.7597497], [-88.1098788, 41.7597332], [-88.1098889, 41.7597187], [-88.1100994, 41.7595491], [-88.1101102, 41.7595401]]]}}, {"type": "Feature", "id": 878972249, "properties": {"osm_id": 878972249, "osm_type": "way", "landuse": "grass"}, "geometry": {"type": "Polygon", "coordinates": [[[-88.112605, 41.7642958], [-88.1125684, 41.7642821], [-88.1125567, 41.7642766], [-88.1125557, 41.7642651], [-88.1125671, 41.7642571], [-88.1125795, 41.7642516], [-88.1125959, 41.7642451], [-88.1126167, 41.7642413], [-88.1126331, 41.7642391], [-88.1126556, 41.7642411], [-88.112674, 41.7642478], [-88.1126928, 41.7642561], [-88.1127042, 41.7642668], [-88.1127122, 41.7642793], [-88.1127159, 41.7642913], [-88.1127139, 41.7643001], [-88.1126992, 41.7643013], [-88.1126596, 41.7642803], [-88.1126137, 41.7644689], [-88.1126576, 41.7644904], [-88.112669, 41.7644994], [-88.1126703, 41.7645084], [-88.1126579, 41.7645649], [-88.1126532, 41.7645737], [-88.1126472, 41.7645799], [-88.1126371, 41.7645822], [-88.1126247, 41.7645787], [-88.1125905, 41.7645617], [-88.112561, 41.7646852], [-88.1125386, 41.7647845], [-88.1125708, 41.7647975], [-88.1125852, 41.764804], [-88.1125902, 41.7648107], [-88.1125889, 41.7648182], [-88.1125778, 41.7648285], [-88.11256, 41.7648343], [-88.1125406, 41.764841], [-88.1125117, 41.764842], [-88.112493, 41.76484], [-88.1124675, 41.7648328], [-88.1124467, 41.7648215], [-88.1124316, 41.7648065], [-88.1124229, 41.7647917], [-88.1124189, 41.7647732], [-88.1124209, 41.7647662], [-88.1124242, 41.7647627], [-88.1124303, 41.7647602], [-88.1124403, 41.7647612], [-88.1124856, 41.7647825], [-88.112605, 41.7642958]]]}}, {"type": "Feature", "id": 878972281, "properties": {"osm_id": 878972281, "osm_type": "way", "landuse": "grass"}, "geometry": {"type": "Polygon", "coordinates": [[[-88.1121868, 41.7589409], [-88.1121731, 41.7589486], [-88.1121567, 41.7589525], [-88.1121395, 41.7589523], [-88.1121233, 41.7589479], [-88.11211, 41.7589398], [-88.1121009, 41.7589289], [-88.112097, 41.7589165], [-88.1120987, 41.7589037], [-88.1121059, 41.7588921], [-88.1121178, 41.7588828], [-88.1121331, 41.7588769], [-88.1121501, 41.758875], [-88.112167, 41.7588774], [-88.112182, 41.7588837], [-88.1121934, 41.7588933], [-88.1122, 41.7589052], [-88.1122011, 41.758918], [-88.1121965, 41.7589303], [-88.1121868, 41.7589409]]]}}, {"type": "Feature", "id": 878972289, "properties": {"osm_id": 878972289, "osm_type": "way", "landuse": "grass"}, "geometry": {"type": "Polygon", "coordinates": [[[-88.1129164, 41.7585252], [-88.1129251, 41.7583887], [-88.1129332, 41.7583001], [-88.1129419, 41.7582926], [-88.1129546, 41.7582886], [-88.1129607, 41.7582956], [-88.1129654, 41.7583132], [-88.11296, 41.7583492], [-88.1129466, 41.7585843], [-88.1129459, 41.7586393], [-88.1129533, 41.7586648], [-88.1129788, 41.7587363], [-88.1129922, 41.7587668], [-88.1129915, 41.7587928], [-88.1129815, 41.7588214], [-88.1129637, 41.758851], [-88.112954, 41.7588614], [-88.1129446, 41.7588654], [-88.1129352, 41.7588679], [-88.1129278, 41.7588594], [-88.112927, 41.7588483], [-88.1129124, 41.7586383], [-88.1129164, 41.7585252]]]}}, {"type": "Feature", "id": 878972292, "properties": {"osm_id": 878972292, "osm_type": "way", "landuse": "grass"}, "geometry": {"type": "Polygon", "coordinates": [[[-88.1134569, 41.7593761], [-88.1134616, 41.7593716], [-88.113475, 41.7593686], [-88.1134871, 41.7593726], [-88.1135648, 41.7594596], [-88.1135675, 41.7594806], [-88.1135648, 41.7595001], [-88.1135501, 41.7595181], [-88.1135307, 41.7595291], [-88.1135105, 41.7595361], [-88.1134904, 41.7595381], [-88.1134609, 41.7595366], [-88.1134361, 41.7595251], [-88.1134133, 41.7595051], [-88.1134073, 41.7594826], [-88.1134046, 41.7594586], [-88.1134488, 41.7593876], [-88.1134569, 41.7593761]]]}}, {"type": "Feature", "id": 878972302, "properties": {"osm_id": 878972302, "osm_type": "way", "landuse": "grass"}, "geometry": {"type": "Polygon", "coordinates": [[[-88.1129761, 41.7599288], [-88.1129788, 41.7599158], [-88.1129862, 41.7599088], [-88.1129996, 41.7599073], [-88.113007, 41.7599168], [-88.113009, 41.7600268], [-88.1130163, 41.7600904], [-88.1130291, 41.7601149], [-88.1130438, 41.7601504], [-88.1130593, 41.7601899], [-88.1130666, 41.7602204], [-88.1130807, 41.760582], [-88.11308, 41.7606111], [-88.1130733, 41.7606381], [-88.1130566, 41.7606756], [-88.1130297, 41.7607091], [-88.113019, 41.7607111], [-88.113013, 41.7607006], [-88.1129761, 41.7600028], [-88.1129761, 41.7599288]]]}}, {"type": "Feature", "id": 878972303, "properties": {"osm_id": 878972303, "osm_type": "way", "landuse": "grass"}, "geometry": {"type": "Polygon", "coordinates": [[[-88.1131364, 41.7625277], [-88.1130847, 41.7623222], [-88.1130619, 41.761786], [-88.1130485, 41.7614989], [-88.1130177, 41.7608967], [-88.1130291, 41.7608882], [-88.1130472, 41.7608912], [-88.1130505, 41.7608982], [-88.1130606, 41.7611092], [-88.1131129, 41.7613113], [-88.1131424, 41.761958], [-88.1131692, 41.7624837], [-88.1131779, 41.7626903], [-88.1131699, 41.7627253], [-88.1131639, 41.7627373], [-88.1131518, 41.7627348], [-88.1131464, 41.7627243], [-88.1131364, 41.7625277]]]}}, {"type": "Feature", "id": 878972310, "properties": {"osm_id": 878972310, "osm_type": "way", "landuse": "grass"}, "geometry": {"type": "Polygon", "coordinates": [[[-88.1139637, 41.7619569], [-88.1139503, 41.761966], [-88.1139339, 41.7619715], [-88.1139159, 41.761973], [-88.1138982, 41.7619703], [-88.1138825, 41.7619636], [-88.1138704, 41.7619536], [-88.1138629, 41.7619414], [-88.113861, 41.761928], [-88.1138646, 41.7619148], [-88.1138735, 41.7619031], [-88.1138869, 41.761894], [-88.1139034, 41.7618884], [-88.1139213, 41.761887], [-88.113939, 41.7618897], [-88.1139547, 41.7618964], [-88.1139669, 41.7619063], [-88.1139743, 41.7619186], [-88.1139763, 41.761932], [-88.1139726, 41.7619452], [-88.1139637, 41.7619569]]]}}, {"type": "Feature", "id": 878972335, "properties": {"osm_id": 878972335, "osm_type": "way", "landuse": "grass"}, "geometry": {"type": "Polygon", "coordinates": [[[-88.1187402, 41.7654817], [-88.1187475, 41.7654752], [-88.1187603, 41.7654682], [-88.1187791, 41.7654627], [-88.1187999, 41.7654617], [-88.118822, 41.7654672], [-88.1189393, 41.7655817], [-88.1189467, 41.7656027], [-88.1189427, 41.7656232], [-88.1189306, 41.7656422], [-88.1188964, 41.7656533], [-88.1188676, 41.7656522], [-88.1188448, 41.7656442], [-88.1187462, 41.7655357], [-88.1187335, 41.7655097], [-88.1187348, 41.7654927], [-88.1187402, 41.7654817]]]}}, {"type": "Feature", "id": 878972354, "properties": {"osm_id": 878972354, "osm_type": "way", "landuse": "grass"}, "geometry": {"type": "Polygon", "coordinates": [[[-88.1119373, 41.7653457], [-88.1119269, 41.7653471], [-88.1119163, 41.7653465], [-88.1119063, 41.7653442], [-88.1118973, 41.76534], [-88.1118898, 41.7653344], [-88.1118844, 41.7653276], [-88.1118814, 41.7653201], [-88.1118808, 41.7653122], [-88.1118828, 41.7653045], [-88.1118872, 41.7652973], [-88.1118938, 41.7652912], [-88.1119021, 41.7652864], [-88.1119118, 41.7652832], [-88.1119222, 41.7652818], [-88.1119327, 41.7652823], [-88.1119428, 41.7652847], [-88.1119518, 41.7652889], [-88.1119592, 41.7652945], [-88.1119646, 41.7653013], [-88.1119677, 41.7653088], [-88.1119682, 41.7653167], [-88.1119663, 41.7653244], [-88.1119619, 41.7653316], [-88.1119553, 41.7653377], [-88.1119469, 41.7653425], [-88.1119373, 41.7653457]]]}}, {"type": "Feature", "id": 879060733, "properties": {"osm_id": 879060733, "osm_type": "way", "landuse": "grass"}, "geometry": {"type": "Polygon", "coordinates": [[[-88.1160399, 41.7565159], [-88.116007, 41.7565344], [-88.1159902, 41.7565364], [-88.1159694, 41.7565324], [-88.11595, 41.7565214], [-88.1159393, 41.7565064], [-88.1159393, 41.7564869], [-88.115952, 41.7564684], [-88.1159634, 41.7564584], [-88.11600378120635, 41.75642520692592], [-88.11605307099755, 41.75650479379281], [-88.1160399, 41.7565159]]]}}, {"type": "Feature", "id": 896303284, "properties": {"osm_id": 896303284, "osm_type": "way", "landuse": "grass"}, "geometry": {"type": "Polygon", "coordinates": [[[-88.1117604, 41.7778097], [-88.111743, 41.7778307], [-88.1116987, 41.7778877], [-88.1116712, 41.7779387], [-88.1116424, 41.7779747], [-88.1116156, 41.7779797], [-88.1115961, 41.7779687], [-88.1116028, 41.7779292], [-88.111627, 41.7778942], [-88.1116793, 41.7778182], [-88.1117249, 41.7777942], [-88.111751, 41.7777892], [-88.1117604, 41.7778097]]]}}, {"type": "Feature", "id": 896303285, "properties": {"osm_id": 896303285, "osm_type": "way", "landuse": "grass"}, "geometry": {"type": "Polygon", "coordinates": [[[-88.1118764, 41.7777017], [-88.1118261, 41.7777257], [-88.111806, 41.7777207], [-88.1118067, 41.7776972], [-88.111863, 41.7776612], [-88.11186918326787, 41.77765780833408], [-88.11190839719613, 41.77767932729031], [-88.1118764, 41.7777017]]]}}, {"type": "Feature", "id": 1013485191, "properties": {"osm_id": 1013485191, "osm_type": "way", "leisure": "pitch"}, "geometry": {"type": "Polygon", "coordinates": [[[-88.1071157, 41.7447861], [-88.1071092, 41.7447917], [-88.1071012, 41.7447949], [-88.1070904, 41.7447939], [-88.1070835, 41.7447905], [-88.1070762, 41.7447841], [-88.1070741, 41.7447769], [-88.1070773, 41.7447704], [-88.1071108, 41.744724], [-88.1071524, 41.7447406], [-88.1071157, 41.7447861]]]}}, {"type": "Feature", "id": 1013485192, "properties": {"osm_id": 1013485192, "osm_type": "way", "leisure": "pitch"}, "geometry": {"type": "Polygon", "coordinates": [[[-88.1070037, 41.7447762], [-88.1070074, 41.744783], [-88.1070074, 41.7447898], [-88.1070013, 41.7447964], [-88.106994, 41.7447995], [-88.106983, 41.7448013], [-88.1069735, 41.7447993], [-88.1069674, 41.7447942], [-88.1069279, 41.7447505], [-88.1069669, 41.7447307], [-88.1070037, 41.7447762]]]}}, {"type": "Feature", "id": 1061241270, "properties": {"osm_id": 1061241270, "osm_type": "way", "leisure": "pitch"}, "geometry": {"type": "Polygon", "coordinates": [[[-88.0973179, 41.7405565], [-88.0973202, 41.7403429], [-88.0974483, 41.7403437], [-88.097446, 41.7405573], [-88.0973179, 41.7405565]]]}}, {"type": "Feature", "id": 1061241271, "properties": {"osm_id": 1061241271, "osm_type": "way", "leisure": "pitch"}, "geometry": {"type": "Polygon", "coordinates": [[[-88.0971509, 41.7405545], [-88.0971532, 41.7403409], [-88.0972813, 41.7403417], [-88.097279, 41.7405553], [-88.0971509, 41.7405545]]]}}, {"type": "Feature", "id": 1061241272, "properties": {"osm_id": 1061241272, "osm_type": "way", "leisure": "pitch"}, "geometry": {"type": "Polygon", "coordinates": [[[-88.0969639, 41.7405557], [-88.0969662, 41.7403421], [-88.0970942, 41.7403429], [-88.0970919, 41.7405565], [-88.0969639, 41.7405557]]]}}, {"type": "Feature", "id": 1061241273, "properties": {"osm_id": 1061241273, "osm_type": "way", "leisure": "pitch"}, "geometry": {"type": "Polygon", "coordinates": [[[-88.096645, 41.7405535], [-88.0966473, 41.7403399], [-88.0967754, 41.7403407], [-88.0967731, 41.7405543], [-88.096645, 41.7405535]]]}}, {"type": "Feature", "id": 1061241274, "properties": {"osm_id": 1061241274, "osm_type": "way", "leisure": "pitch"}, "geometry": {"type": "Polygon", "coordinates": [[[-88.0964754, 41.740554], [-88.0964777, 41.7403404], [-88.0966057, 41.7403412], [-88.0966034, 41.7405548], [-88.0964754, 41.740554]]]}}, {"type": "Feature", "id": 1073203632, "properties": {"osm_id": 1073203632, "osm_type": "way", "landuse": "grass"}, "geometry": {"type": "MultiPolygon", "coordinates": [[[[-88.1099349, 41.7488304], [-88.11128012196416, 41.748798044583914], [-88.11132394898969, 41.748868810873695], [-88.1103376, 41.7488896], [-88.10956796169289, 41.74890566925545], [-88.10955922699662, 41.748839543694906], [-88.1099349, 41.7488304]]], [[[-88.1057186, 41.748989], [-88.1044042, 41.7490178], [-88.1037949, 41.7490293], [-88.1037949, 41.7490126], [-88.1038227, 41.7490114], [-88.1045755, 41.7489936], [-88.1050298, 41.7489637], [-88.1053287, 41.7489419], [-88.1059535, 41.7489264], [-88.10719833194214, 41.74889647143762], [-88.10720007942639, 41.748955876211866], [-88.1057186, 41.748989]]]]}}, {"type": "Feature", "id": 1073203633, "properties": {"osm_id": 1073203633, "osm_type": "way", "landuse": "grass"}, "geometry": {"type": "Polygon", "coordinates": [[[-88.1034408, 41.7489868], [-88.1034648, 41.7489869], [-88.1034722, 41.7489902], [-88.1034719, 41.7489973], [-88.1034656, 41.7490021], [-88.1034405, 41.7490026], [-88.1034408, 41.7489868]]]}}, {"type": "Feature", "id": 1073203634, "properties": {"osm_id": 1073203634, "osm_type": "way", "landuse": "grass"}, "geometry": {"type": "Polygon", "coordinates": [[[-88.1018312, 41.7490177], [-88.10288, 41.7489965], [-88.103419, 41.7489881], [-88.1034195, 41.7490033], [-88.1025746, 41.7490181], [-88.1018544, 41.749064], [-88.10119871873962, 41.74907639663088], [-88.10119703209975, 41.74903012671924], [-88.1018312, 41.7490177]]]}}, {"type": "Feature", "id": 1073203635, "properties": {"osm_id": 1073203635, "osm_type": "way", "landuse": "grass"}, "geometry": {"type": "Polygon", "coordinates": [[[-88.0976241, 41.7491236], [-88.0972115, 41.7491493], [-88.0963264, 41.7491652], [-88.094918, 41.7491904], [-88.0949021, 41.7491901], [-88.0948932, 41.7491871], [-88.0948848, 41.7491815], [-88.0948822, 41.7491729], [-88.0948844, 41.7491643], [-88.0948932, 41.7491581], [-88.0949091, 41.7491548], [-88.0951193, 41.7491508], [-88.0969574, 41.7491132], [-88.0979829, 41.7490934], [-88.0979829, 41.7491026], [-88.0976241, 41.7491236]]]}}, {"type": "Feature", "id": 1073203636, "properties": {"osm_id": 1073203636, "osm_type": "way", "landuse": "grass"}, "geometry": {"type": "Polygon", "coordinates": [[[-88.0927013, 41.7492343], [-88.0917596, 41.7492544], [-88.0908796, 41.7492728], [-88.0896902, 41.7492955], [-88.0896902, 41.7492892], [-88.0903408, 41.7492474], [-88.0908949, 41.7492354], [-88.0924396, 41.7492049], [-88.0932385, 41.7491902], [-88.0932391, 41.7492023], [-88.0927013, 41.7492343]]]}}, {"type": "Feature", "id": 1075239780, "properties": {"osm_id": 1075239780, "osm_type": "way", "landuse": "grass"}, "geometry": {"type": "Polygon", "coordinates": [[[-88.1047945, 41.7488516], [-88.1046445, 41.7488536], [-88.1046432, 41.7488498], [-88.1046485, 41.7488443], [-88.1046663, 41.7488257], [-88.1046804, 41.7488072], [-88.1046934, 41.7487806], [-88.104699, 41.7487696], [-88.1047084, 41.7487653], [-88.1047157, 41.748764], [-88.1047226, 41.748765], [-88.104732, 41.7487705], [-88.1047407, 41.748785], [-88.1047622, 41.7488123], [-88.1047947, 41.7488451], [-88.1047945, 41.7488516]]]}}, {"type": "Feature", "id": 1077501609, "properties": {"osm_id": 1077501609, "osm_type": "way", "landuse": "grass"}, "geometry": {"type": "Polygon", "coordinates": [[[-88.1065314, 41.7501793], [-88.1065227, 41.7501883], [-88.1065039, 41.7501973], [-88.1064764, 41.7502003], [-88.1064536, 41.7501943], [-88.1064355, 41.7501808], [-88.1064275, 41.7501608], [-88.1064127, 41.7498166], [-88.1064134, 41.7498036], [-88.1064215, 41.7497896], [-88.1064355, 41.7497776], [-88.1064543, 41.7497716], [-88.1064758, 41.7497721], [-88.1064966, 41.7497771], [-88.1065133, 41.7497876], [-88.1065241, 41.7498116], [-88.1065355, 41.7501678], [-88.1065314, 41.7501793]]]}}, {"type": "Feature", "id": 1089944025, "properties": {"osm_id": 1089944025, "osm_type": "way", "leisure": "pitch"}, "geometry": {"type": "Polygon", "coordinates": [[[-88.0985347, 41.7556965], [-88.0984029, 41.7557074], [-88.0983712, 41.7554939], [-88.098503, 41.755483], [-88.0985347, 41.7556965]]]}}, {"type": "Feature", "id": 1089955701, "properties": {"osm_id": 1089955701, "osm_type": "way", "landuse": "grass"}, "geometry": {"type": "Polygon", "coordinates": [[[-88.1018902, 41.7473527], [-88.1018972, 41.7473666], [-88.101897, 41.7473814], [-88.1018896, 41.7473951], [-88.1018761, 41.747406], [-88.1018582, 41.7474124], [-88.1018385, 41.7474136], [-88.1018194, 41.7474094], [-88.1018037, 41.7474004], [-88.1017935, 41.7473877], [-88.1017901, 41.7473731], [-88.1017939, 41.7473586], [-88.1018045, 41.7473461], [-88.1018205, 41.7473373], [-88.1018396, 41.7473334], [-88.1018594, 41.747335], [-88.101877, 41.7473417], [-88.1018902, 41.7473527]]]}}, {"type": "Feature", "id": 1091747840, "properties": {"osm_id": 1091747840, "osm_type": "way", "leisure": "pitch"}, "geometry": {"type": "Polygon", "coordinates": [[[-88.1087678, 41.7768158], [-88.108573, 41.7766758], [-88.1087055, 41.7765734], [-88.1089002, 41.7767134], [-88.1087678, 41.7768158]]]}}, {"type": "Feature", "id": 1091747841, "properties": {"osm_id": 1091747841, "osm_type": "way", "leisure": "pitch"}, "geometry": {"type": "Polygon", "coordinates": [[[-88.1088024, 41.7766076], [-88.108749, 41.7765697], [-88.1088595, 41.776483], [-88.1089129, 41.7765209], [-88.1088024, 41.7766076]]]}}, {"type": "Feature", "id": 1091747842, "properties": {"osm_id": 1091747842, "osm_type": "way", "leisure": "pitch"}, "geometry": {"type": "Polygon", "coordinates": [[[-88.1089026, 41.7766791], [-88.1088492, 41.7766413], [-88.10896, 41.7765543], [-88.1090134, 41.7765921], [-88.1089026, 41.7766791]]]}}, {"type": "Feature", "id": 1092243032, "properties": {"osm_id": 1092243032, "osm_type": "way", "leisure": "pitch"}, "geometry": {"type": "Polygon", "coordinates": [[[-88.1129215, 41.7776924], [-88.1128435, 41.7774868], [-88.1129704, 41.77746], [-88.1130484, 41.7776656], [-88.1129215, 41.7776924]]]}}, {"type": "Feature", "id": 1102717935, "properties": {"osm_id": 1102717935, "osm_type": "way", "leisure": "playground"}, "geometry": {"type": "Polygon", "coordinates": [[[-88.0972496, 41.7387078], [-88.0972283, 41.7385981], [-88.0973745, 41.738584], [-88.0973919, 41.7386931], [-88.0972496, 41.7387078]]]}}, {"type": "Feature", "id": 1132951294, "properties": {"osm_id": 1132951294, "osm_type": "way", "leisure": "garden"}, "geometry": {"type": "Polygon", "coordinates": [[[-88.0958022, 41.7387941], [-88.0958001, 41.7387708], [-88.0958668, 41.7387632], [-88.0958709, 41.7387887], [-88.0958022, 41.7387941]]]}}, {"type": "Feature", "id": 1138556040, "properties": {"osm_id": 1138556040, "osm_type": "way", "leisure": "pitch"}, "geometry": {"type": "Polygon", "coordinates": [[[-88.1123793, 41.7550386], [-88.1123717, 41.754962], [-88.1126093, 41.7549487], [-88.112617, 41.7550253], [-88.1123793, 41.7550386]]]}}, {"type": "Feature", "id": 1138556041, "properties": {"osm_id": 1138556041, "osm_type": "way", "leisure": "pitch"}, "geometry": {"type": "Polygon", "coordinates": [[[-88.1128471, 41.754948], [-88.1127145, 41.7549559], [-88.1126916, 41.7547416], [-88.1128241, 41.7547337], [-88.1128471, 41.754948]]]}}, {"type": "Feature", "id": 1138556042, "properties": {"osm_id": 1138556042, "osm_type": "way", "leisure": "pitch"}, "geometry": {"type": "Polygon", "coordinates": [[[-88.1128883, 41.7549458], [-88.1128651, 41.7547321], [-88.1129981, 41.7547241], [-88.1130212, 41.7549378], [-88.1128883, 41.7549458]]]}}, {"type": "Feature", "id": 1241738732, "properties": {"osm_id": 1241738732, "osm_type": "way", "leisure": "pitch"}, "geometry": {"type": "Polygon", "coordinates": [[[-88.1183667, 41.7707506], [-88.1181531, 41.7707284], [-88.1181746, 41.7706134], [-88.1183882, 41.7706357], [-88.1183667, 41.7707506]]]}}, {"type": "Feature", "id": 1421473688, "properties": {"osm_id": 1421473688, "osm_type": "way", "leisure": "pitch"}, "geometry": {"type": "Polygon", "coordinates": [[[-88.1181593, 41.7760357], [-88.1180862, 41.776033], [-88.1180942, 41.7759128], [-88.1181673, 41.7759155], [-88.1181593, 41.7760357]]]}}, {"type": "Feature", "id": 1421473689, "properties": {"osm_id": 1421473689, "osm_type": "way", "leisure": "pitch"}, "geometry": {"type": "Polygon", "coordinates": [[[-88.1181478, 41.7762172], [-88.1180747, 41.7762145], [-88.1180827, 41.7760943], [-88.1181558, 41.7760971], [-88.1181478, 41.7762172]]]}}, {"type": "Feature", "id": 1422921738, "properties": {"osm_id": 1422921738, "osm_type": "way", "leisure": "park", "name": "Olesen Estates Park"}, "geometry": {"type": "Polygon", "coordinates": [[[-88.11033579277517, 41.772313308514285], [-88.11085838986975, 41.77025795768503], [-88.1108833, 41.7702294], [-88.1109189, 41.7702099], [-88.1109638, 41.7702064], [-88.1111271, 41.7702279], [-88.1115928, 41.7702982], [-88.1117161, 41.7703155], [-88.1118945, 41.7703342], [-88.1120923, 41.7703602], [-88.1121946, 41.7703707], [-88.1122968, 41.7703765], [-88.1123773, 41.7703875], [-88.1124336, 41.7704145], [-88.1124511, 41.7704505], [-88.1124403, 41.7705195], [-88.1123699, 41.7709416], [-88.1123411, 41.7711346], [-88.1118422, 41.7711046], [-88.1114211, 41.7716703], [-88.1112074, 41.7721522], [-88.11120539981407, 41.77216109368386], [-88.111204, 41.772161], [-88.1111065, 41.7725767], [-88.11030404116563, 41.772453474493055], [-88.11033579277517, 41.772313308514285]]]}}, {"type": "Feature", "id": 1422921760, "properties": {"osm_id": 1422921760, "osm_type": "way", "leisure": "pitch"}, "geometry": {"type": "Polygon", "coordinates": [[[-88.1203539, 41.765742], [-88.1202805, 41.765735], [-88.1202926, 41.7656645], [-88.1203659, 41.7656715], [-88.1203539, 41.765742]]]}}]}