{"type": "FeatureCollection", "features": [{"type": "Feature", "id": 237671503, "properties": {"osm_id": 237671503, "osm_type": "node", "highway": "traffic_signals"}, "geometry": {"type": "Point", "coordinates": [-88.1097566, 41.779102]}}, {"type": "Feature", "id": 237678660, "properties": {"osm_id": 237678660, "osm_type": "node", "highway": "traffic_signals"}, "geometry": {"type": "Point", "coordinates": [-88.1128308, 41.7656036]}}, {"type": "Feature", "id": 237686918, "properties": {"osm_id": 237686918, "osm_type": "node", "highway": "traffic_signals", "traffic_signals": "signal"}, "geometry": {"type": "Point", "coordinates": [-88.1038289, 41.7555497]}}, {"type": "Feature", "id": 237690743, "properties": {"osm_id": 237690743, "osm_type": "node", "highway": "traffic_signals", "traffic_signals": "signal"}, "geometry": {"type": "Point", "coordinates": [-88.112782, 41.758128]}}, {"type": "Feature", "id": 1363198764, "properties": {"osm_id": 1363198764, "osm_type": "node", "highway": "traffic_signals", "traffic_signals": "signal"}, "geometry": {"type": "Point", "coordinates": [-88.1130438, 41.758283]}}, {"type": "Feature", "id": 3812155954, "properties": {"osm_id": 3812155954, "osm_type": "node", "crossing": "traffic_signals", "highway": "crossing"}, "geometry": {"type": "Point", "coordinates": [-88.1038248, 41.7554231]}}, {"type": "Feature", "id": 5519367870, "properties": {"osm_id": 5519367870, "osm_type": "node", "crossing": "traffic_signals", "highway": "crossing"}, "geometry": {"type": "Point", "coordinates": [-88.1040182, 41.7555155]}}, {"type": "Feature", "id": 5519367871, "properties": {"osm_id": 5519367871, "osm_type": "node", "crossing": "traffic_signals", "highway": "crossing"}, "geometry": {"type": "Point", "coordinates": [-88.1038354, 41.7556835]}}, {"type": "Feature", "id": 5815952751, "properties": {"osm_id": 5815952751, "osm_type": "node", "crossing": "traffic_signals", "highway": "crossing"}, "geometry": {"type": "Point", "coordinates": [-88.1128555, 41.7655015]}}, {"type": "Feature", "id": 6141479199, "properties": {"osm_id": 6141479199, "osm_type": "node", "crossing": "traffic_signals", "highway": "crossing"}, "geometry": {"type": "Point", "coordinates": [-88.1095905, 41.7791454]}}, {"type": "Feature", "id": 6141479210, "properties": {"osm_id": 6141479210, "osm_type": "node", "crossing": "traffic_signals", "highway": "crossing"}, "geometry": {"type": "Point", "coordinates": [-88.1097267, 41.7789792]}}, {"type": "Feature", "id": 8175410857, "properties": {"osm_id": 8175410857, "osm_type": "node", "crossing": "traffic_signals", "highway": "crossing"}, "geometry": {"type": "Point", "coordinates": [-88.1195492, 41.776633]}}, {"type": "Feature", "id": 8177018165, "properties": {"osm_id": 8177018165, "osm_type": "node", "crossing": "traffic_signals", "highway": "crossing"}, "geometry": {"type": "Point", "coordinates": [-88.1130216, 41.7655967]}}, {"type": "Feature", "id": 9424033000, "properties": {"osm_id": 9424033000, "osm_type": "node", "highway": "traffic_signals", "traffic_signals": "signal"}, "geometry": {"type": "Point", "coordinates": [-88.112925, 41.7580477]}}, {"type": "Feature", "id": 9424033001, "properties": {"osm_id": 9424033001, "osm_type": "node", "highway": "traffic_signals", "traffic_signals": "signal"}, "geometry": {"type": "Point", "coordinates": [-88.1131893, 41.7581849]}}, {"type": "Feature", "id": 9832025205, "properties": {"osm_id": 9832025205, "osm_type": "node", "crossing": "traffic_signals", "highway": "crossing"}, "geometry": {"type": "Point", "coordinates": [-88.1034347, 41.748946]}}, {"type": "Feature", "id": 9832025206, "properties": {"osm_id": 9832025206, "osm_type": "node", "crossing": "traffic_signals", "highway": "crossing"}, "geometry": {"type": "Point", "coordinates": [-88.1034351, 41.7490737]}}, {"type": "Feature", "id": 9832025207, "properties": {"osm_id": 9832025207, "osm_type": "node", "crossing": "traffic_signals", "highway": "crossing"}, "geometry": {"type": "Point", "coordinates": [-88.1036058, 41.7488737]}}, {"type": "Feature", "id": 9832025208, "properties": {"osm_id": 9832025208, "osm_type": "node", "crossing": "traffic_signals", "highway": "crossing"}, "geometry": {"type": "Point", "coordinates": [-88.1036144, 41.7491429]}}, {"type": "Feature", "id": 9832025209, "properties": {"osm_id": 9832025209, "osm_type": "node", "crossing": "traffic_signals", "highway": "crossing"}, "geometry": {"type": "Point", "coordinates": [-88.1037714, 41.7489399]}}, {"type": "Feature", "id": 9832025210, "properties": {"osm_id": 9832025210, "osm_type": "node", "crossing": "traffic_signals", "highway": "crossing"}, "geometry": {"type": "Point", "coordinates": [-88.1037718, 41.7490655]}}, {"type": "Feature", "id": 9832025256, "properties": {"osm_id": 9832025256, "osm_type": "node", "crossing": "traffic_signals", "highway": "crossing"}, "geometry": {"type": "Point", "coordinates": [-88.1036558, 41.755578]}}, {"type": "Feature", "id": 9859368231, "properties": {"osm_id": 9859368231, "osm_type": "node", "crossing": "traffic_signals", "highway": "crossing"}, "geometry": {"type": "Point", "coordinates": [-88.0946718, 41.749042]}}, {"type": "Feature", "id": 9859368232, "properties": {"osm_id": 9859368232, "osm_type": "node", "crossing": "traffic_signals", "highway": "crossing"}, "geometry": {"type": "Point", "coordinates": [-88.094783, 41.7490373]}}, {"type": "Feature", "id": 9861560480, "properties": {"osm_id": 9861560480, "osm_type": "node", "highway": "traffic_signals", "traffic_signals": "signal"}, "geometry": {"type": "Point", "coordinates": [-88.1037983, 41.7489394]}}, {"type": "Feature", "id": 9861560481, "properties": {"osm_id": 9861560481, "osm_type": "node", "highway": "traffic_signals", "traffic_signals": "signal"}, "geometry": {"type": "Point", "coordinates": [-88.1033979, 41.7490747]}}, {"type": "Feature", "id": 9861560482, "properties": {"osm_id": 9861560482, "osm_type": "node", "highway": "traffic_signals", "traffic_signals": "signal"}, "geometry": {"type": "Point", "coordinates": [-88.103605, 41.748847]}}, {"type": "Feature", "id": 9861560483, "properties": {"osm_id": 9861560483, "osm_type": "node", "highway": "traffic_signals", "traffic_signals": "signal"}, "geometry": {"type": "Point", "coordinates": [-88.1036151, 41.7491637]}}, {"type": "Feature", "id": 9861560518, "properties": {"osm_id": 9861560518, "osm_type": "node", "highway": "traffic_signals", "traffic_signals": "signal"}, "geometry": {"type": "Point", "coordinates": [-88.0948966, 41.7491163]}}, {"type": "Feature", "id": 9861560519, "properties": {"osm_id": 9861560519, "osm_type": "node", "highway": "traffic_signals", "traffic_signals": "signal"}, "geometry": {"type": "Point", "coordinates": [-88.0945881, 41.7492345]}}, {"type": "Feature", "id": 9861560520, "properties": {"osm_id": 9861560520, "osm_type": "node", "highway": "traffic_signals", "traffic_signals": "signal"}, "geometry": {"type": "Point", "coordinates": [-88.0946715, 41.7490196]}}]}