{"type": "FeatureCollection", "features": [{"type": "Feature", "id": 35362616, "properties": {"osm_id": 35362616, "osm_type": "way", "natural": "water"}, "geometry": {"type": "Polygon", "coordinates": [[[-88.0970683, 41.7536508], [-88.0969772, 41.753603], [-88.0969309, 41.7535683], [-88.0969356, 41.753489], [-88.0969531, 41.7534582], [-88.0969762, 41.753404], [-88.0970211, 41.7533549], [-88.0970402, 41.7532728], [-88.0969378, 41.7531972], [-88.0967363, 41.7531568], [-88.0967084, 41.7531435], [-88.0966633, 41.7531088], [-88.0966622, 41.7530476], [-88.0967454, 41.7529855], [-88.096818, 41.7529434], [-88.09703891718263, 41.75292487609098], [-88.0970813856397, 41.753650659294195], [-88.0970683, 41.7536508]]]}}, {"type": "Feature", "id": 35365237, "properties": {"osm_id": 35365237, "osm_type": "way", "natural": "water"}, "geometry": {"type": "Polygon", "coordinates": [[[-88.0932465, 41.7499466], [-88.0931006, 41.7497128], [-88.0929708, 41.7496573], [-88.0927808, 41.7496511], [-88.0928175, 41.7496166], [-88.0928811, 41.7496097], [-88.0935126, 41.74961], [-88.0935771, 41.749658], [-88.0936123, 41.7500305], [-88.0936241, 41.7501574], [-88.0935879, 41.750219], [-88.093524, 41.7502124], [-88.0934771, 41.7501444], [-88.0933585, 41.7500302], [-88.0932465, 41.7499466]]]}}, {"type": "Feature", "id": 35371018, "properties": {"osm_id": 35371018, "osm_type": "way", "natural": "water"}, "geometry": {"type": "Polygon", "coordinates": [[[-88.0923541, 41.749604], [-88.0923638, 41.7496439], [-88.0920556, 41.7497236], [-88.091902, 41.7500306], [-88.0917729, 41.7501489], [-88.0914222, 41.7503642], [-88.0913907, 41.7499844], [-88.0913617, 41.7496998], [-88.0914177, 41.7496405], [-88.0923541, 41.749604]]]}}, {"type": "Feature", "id": 35371495, "properties": {"osm_id": 35371495, "osm_type": "way", "natural": "water"}, "geometry": {"type": "Polygon", "coordinates": [[[-88.1004022, 41.7528827], [-88.1005749, 41.7529335], [-88.1005737, 41.7530271], [-88.1005064, 41.7530872], [-88.1003654, 41.7531076], [-88.1002782, 41.7531559], [-88.1001464, 41.7532911], [-88.1001511, 41.7533594], [-88.1002296, 41.7534161], [-88.100066, 41.7536484], [-88.099926, 41.7536087], [-88.0998616, 41.7535408], [-88.0998753, 41.7534727], [-88.0998672, 41.7533762], [-88.0998544, 41.7532509], [-88.0998987, 41.7531679], [-88.0999078, 41.7531408], [-88.0999443, 41.7530928], [-88.0999893, 41.7530509], [-88.1000168, 41.752975], [-88.100197, 41.752879], [-88.1004022, 41.7528827]]]}}, {"type": "Feature", "id": 35384026, "properties": {"osm_id": 35384026, "osm_type": "way", "layer": "-1", "tunnel": "yes", "waterway": "stream"}, "geometry": {"type": "LineString", "coordinates": [[-88.118879, 41.767831], [-88.118856, 41.767656], [-88.118885, 41.767], [-88.118912, 41.766896], [-88.118949, 41.766835], [-88.119011, 41.766711], [-88.119066, 41.76658], [-88.119277, 41.766463], [-88.119359, 41.766438], [-88.119533, 41.766421], [-88.119624, 41.766372], [-88.119725, 41.766297], [-88.119742, 41.766255], [-88.11977, 41.766228], [-88.119797, 41.766165], [-88.119824, 41.766145], [-88.11986, 41.766069], [-88.119884, 41.765955], [-88.119923, 41.76565], [-88.119918, 41.765564], [-88.119861, 41.765221], [-88.119809, 41.76508], [-88.119772, 41.764943], [-88.119726, 41.76484], [-88.119681, 41.764799], [-88.11967, 41.764751], [-88.119579, 41.764682], [-88.119496, 41.764607], [-88.119119, 41.764326], [-88.11899, 41.764241], [-88.118943, 41.76419], [-88.11887, 41.764122], [-88.118814, 41.763902], [-88.118814, 41.763806], [-88.118823, 41.763675], [-88.11885, 41.763647], [-88.118866, 41.763407], [-88.118848, 41.763318], [-88.118801, 41.763195], [-88.118618, 41.763037]]}}, {"type": "Feature", "id": 35387462, "properties": {"osm_id": 35387462, "osm_type": "way", "waterway": "stream"}, "geometry": {"type": "LineString", "coordinates": [[-88.0910337, 41.7377471], [-88.090965, 41.73767], [-88.090938, 41.737623], [-88.090865, 41.737499], [-88.09086787522035, 41.73736705933273]]}}, {"type": "Feature", "id": 190020946, "properties": {"osm_id": 190020946, "osm_type": "way", "natural": "water"}, "geometry": {"type": "Polygon", "coordinates": [[[-88.1086826, 41.7778857], [-88.1088012, 41.7778976], [-88.1089487, 41.7779056], [-88.1090238, 41.7779156], [-88.1090882, 41.7779296], [-88.1091338, 41.7779676], [-88.109174, 41.7780256], [-88.109182, 41.7781477], [-88.1091579, 41.7782197], [-88.1091311, 41.7782597], [-88.1090882, 41.7782917], [-88.1090211, 41.7783057], [-88.1087878, 41.7783197], [-88.108549, 41.7783377], [-88.1084203, 41.7783357], [-88.1083211, 41.7783297], [-88.1082272, 41.7783317], [-88.1081655, 41.7783237], [-88.1081199, 41.7783037], [-88.1080904, 41.7782697], [-88.1080636, 41.7782277], [-88.1080528, 41.7781817], [-88.1080501, 41.7780736], [-88.1080394, 41.7779416], [-88.108026, 41.7779076], [-88.1079992, 41.7778796], [-88.107959, 41.7778636], [-88.1079107, 41.7778616], [-88.1078624, 41.7778576], [-88.1078248, 41.7778436], [-88.1078114, 41.7778236], [-88.1078087, 41.7777916], [-88.1078087, 41.7777556], [-88.1078275, 41.7777316], [-88.1078651, 41.7777016], [-88.1079402, 41.7776656], [-88.1079965, 41.7776256], [-88.1080287, 41.7775876], [-88.1080367, 41.7775496], [-88.1080394, 41.7774976], [-88.1080287, 41.7773336], [-88.1080367, 41.7772956], [-88.1080501, 41.7772696], [-88.1080797, 41.7772556], [-88.108136, 41.7772396], [-88.1082004, 41.7772396], [-88.1082486, 41.7772616], [-88.1082701, 41.7772916], [-88.1082889, 41.7773336], [-88.1082969, 41.7774136], [-88.1083103, 41.7775056], [-88.1083425, 41.7775896], [-88.1083962, 41.7776736], [-88.1084525, 41.7777556], [-88.1085115, 41.7778076], [-88.1085827, 41.7778565], [-88.1086826, 41.7778857]]]}}, {"type": "Feature", "id": 190849848, "properties": {"osm_id": 190849848, "osm_type": "way", "natural": "water"}, "geometry": {"type": "Polygon", "coordinates": [[[-88.111623, 41.7706555], [-88.111705, 41.7707227], [-88.1117544, 41.7707855], [-88.1117651, 41.7708396], [-88.1117705, 41.7709076], [-88.1117678, 41.7709696], [-88.1117437, 41.7710396], [-88.1117142, 41.7710956], [-88.1116552, 41.7711556], [-88.111564, 41.7712216], [-88.1114433, 41.7712877], [-88.1113413, 41.7713557], [-88.1112743, 41.7714257], [-88.1112233, 41.7715237], [-88.1111348, 41.7716857], [-88.1110946, 41.7717277], [-88.111049, 41.7717417], [-88.1110114, 41.7717457], [-88.1109739, 41.7717377], [-88.110946, 41.7717149], [-88.1108923, 41.7716369], [-88.1108398, 41.7715477], [-88.1108049, 41.7714737], [-88.1107904, 41.7714209], [-88.1107942, 41.7713537], [-88.1108022, 41.7712837], [-88.110828, 41.7711808], [-88.1109149, 41.7708256], [-88.1109927, 41.7706095], [-88.1110452, 41.7705207], [-88.1110812, 41.7704795], [-88.1111214, 41.7704615], [-88.1111563, 41.7704615], [-88.1111965, 41.7704855], [-88.1112877, 41.7705195], [-88.1113451, 41.7705497], [-88.1115253, 41.7706218], [-88.111623, 41.7706555]]]}}, {"type": "Feature", "id": 190849858, "properties": {"osm_id": 190849858, "osm_type": "way", "natural": "water"}, "geometry": {"type": "Polygon", "coordinates": [[[-88.1145063, 41.7771488], [-88.1145451, 41.7771429], [-88.1145784, 41.7771495], [-88.1146461, 41.7771778], [-88.11467, 41.7771946], [-88.1146887, 41.7772226], [-88.1146981, 41.7772556], [-88.1147062, 41.7773056], [-88.1147115, 41.7773736], [-88.1147089, 41.7774316], [-88.1146941, 41.7774926], [-88.114682, 41.7775467], [-88.1146713, 41.7775787], [-88.1146501, 41.7776029], [-88.1146246, 41.7776249], [-88.1145962, 41.7776467], [-88.1145654, 41.7776617], [-88.1144943, 41.7776797], [-88.1143052, 41.7777227], [-88.1141754, 41.7777539], [-88.1141094, 41.7777727], [-88.1140708, 41.7777809], [-88.1140343, 41.7777797], [-88.1140088, 41.7777737], [-88.1139796, 41.7777619], [-88.1139565, 41.7777447], [-88.1139286, 41.7777179], [-88.1139109, 41.7777107], [-88.1138843, 41.7777039], [-88.1138613, 41.7776857], [-88.1138361, 41.7776679], [-88.1138146, 41.7776589], [-88.1138023, 41.7776477], [-88.1137985, 41.7776359], [-88.1138063, 41.7776177], [-88.1138251, 41.7776147], [-88.1138559, 41.7776187], [-88.1138854, 41.7776157], [-88.1139109, 41.7776107], [-88.113935, 41.7776017], [-88.1139876, 41.7775649], [-88.1141241, 41.7774546], [-88.1142585, 41.7773488], [-88.1143414, 41.7772766], [-88.1144232, 41.7772046], [-88.114477, 41.7771674], [-88.1145063, 41.7771488]]]}}, {"type": "Feature", "id": 190849860, "properties": {"osm_id": 190849860, "osm_type": "way", "natural": "water"}, "geometry": {"type": "Polygon", "coordinates": [[[-88.1154558, 41.7770606], [-88.1155524, 41.7770706], [-88.1156087, 41.7770886], [-88.115649, 41.7771306], [-88.1156865, 41.7771806], [-88.1157187, 41.7772626], [-88.1157268, 41.7773166], [-88.1157187, 41.7773546], [-88.1156972, 41.7773846], [-88.115657, 41.7774126], [-88.115598, 41.7774306], [-88.1155122, 41.7774506], [-88.1154129, 41.7774666], [-88.1153244, 41.7774946], [-88.1152305, 41.7775307], [-88.1151206, 41.7775507], [-88.1150374, 41.7775487], [-88.1149677, 41.7775407], [-88.1149103, 41.7775219], [-88.1148727, 41.7774918], [-88.1148416, 41.7773966], [-88.1148164, 41.7772778], [-88.1148068, 41.7771946], [-88.1148148, 41.7771446], [-88.1148486, 41.7770978], [-88.1148792, 41.7770726], [-88.114928, 41.7770583], [-88.1150106, 41.7770486], [-88.1150693, 41.7770453], [-88.115282, 41.7770515], [-88.1154558, 41.7770606]]]}}, {"type": "Feature", "id": 190849863, "properties": {"osm_id": 190849863, "osm_type": "way", "natural": "water"}, "geometry": {"type": "Polygon", "coordinates": [[[-88.1120333, 41.7751903], [-88.1121031, 41.7752084], [-88.1121594, 41.7752344], [-88.1122077, 41.7752644], [-88.1122292, 41.7752944], [-88.1122345, 41.7755204], [-88.1122318, 41.7759605], [-88.1122211, 41.7760065], [-88.1121943, 41.7760385], [-88.1121487, 41.7760745], [-88.1120897, 41.7761045], [-88.1120012, 41.7761285], [-88.1119046, 41.7761445], [-88.1118268, 41.7761485], [-88.1117587, 41.7761377], [-88.1116873, 41.7761125], [-88.1116176, 41.7760765], [-88.1115334, 41.7760177], [-88.1114191, 41.7758904], [-88.1113698, 41.7758116], [-88.1113574, 41.7757544], [-88.1113521, 41.7756844], [-88.1113725, 41.7755736], [-88.1114138, 41.7754464], [-88.1114647, 41.7753484], [-88.1115066, 41.7753056], [-88.1115693, 41.7752604], [-88.1116337, 41.7752384], [-88.1117454, 41.7752092], [-88.1119481, 41.775185], [-88.1120333, 41.7751903]]]}}, {"type": "Feature", "id": 190852179, "properties": {"osm_id": 190852179, "osm_type": "way", "natural": "water"}, "geometry": {"type": "Polygon", "coordinates": [[[-88.1164848, 41.7633754], [-88.1165797, 41.7633675], [-88.1166387, 41.7633795], [-88.1167165, 41.7634075], [-88.1167943, 41.7634455], [-88.1168452, 41.7635056], [-88.1168576, 41.7635628], [-88.1168452, 41.7636156], [-88.1167932, 41.7636808], [-88.1167288, 41.7637368], [-88.1166307, 41.7637856], [-88.1165126, 41.7638137], [-88.1163517, 41.7638417], [-88.1161049, 41.7638557], [-88.1158609, 41.7638617], [-88.1155739, 41.7638217], [-88.1153915, 41.7637996], [-88.1151474, 41.7637716], [-88.1149596, 41.7637396], [-88.1147799, 41.7636976], [-88.1146646, 41.7636596], [-88.1145761, 41.7636176], [-88.1145251, 41.7635776], [-88.1144849, 41.7635296], [-88.1144704, 41.7634927], [-88.1144688, 41.7634515], [-88.1144742, 41.7634195], [-88.114501, 41.7633955], [-88.1145627, 41.7633755], [-88.1146592, 41.7633675], [-88.1147638, 41.7633555], [-88.1149006, 41.7633695], [-88.1150347, 41.7633975], [-88.1151259, 41.7634035], [-88.1152305, 41.7633855], [-88.1153781, 41.7633755], [-88.1155417, 41.7633755], [-88.1157268, 41.7633995], [-88.1160486, 41.7634175], [-88.1161988, 41.7634175], [-88.1162928, 41.7634033], [-88.1164848, 41.7633754]]]}}, {"type": "Feature", "id": 232270583, "properties": {"osm_id": 232270583, "osm_type": "way", "natural": "water", "water": "reservoir"}, "geometry": {"type": "Polygon", "coordinates": [[[-88.0943871, 41.748747], [-88.0943495, 41.748807], [-88.0942637, 41.7488391], [-88.0937701, 41.7488511], [-88.0925685, 41.7488431], [-88.092472, 41.748819], [-88.092429, 41.748771], [-88.0924237, 41.7486269], [-88.0924827, 41.7485789], [-88.0931425, 41.7485109], [-88.0935717, 41.7484869], [-88.0939311, 41.7484869], [-88.0942851, 41.7485149], [-88.0943602, 41.7485349], [-88.0943924, 41.7485909], [-88.0943894, 41.7486789], [-88.0943871, 41.748747]]]}}, {"type": "Feature", "id": 354638804, "properties": {"osm_id": 354638804, "osm_type": "way", "natural": "water", "water": "reservoir"}, "geometry": {"type": "Polygon", "coordinates": [[[-88.1042415, 41.7500138], [-88.1042603, 41.7500258], [-88.1042684, 41.7500398], [-88.1042576, 41.7500478], [-88.1042389, 41.7500518], [-88.1042174, 41.7500458], [-88.1041933, 41.7500418], [-88.1041718, 41.7500418], [-88.1041289, 41.7500518], [-88.1040752, 41.7500478], [-88.104055, 41.7500369], [-88.1040726, 41.7500238], [-88.1040913, 41.7500038], [-88.1040967, 41.7499797], [-88.1040913, 41.7499517], [-88.104094, 41.7499097], [-88.1041221, 41.7498448], [-88.1041343, 41.7497936], [-88.1041343, 41.7497676], [-88.1041316, 41.7497456], [-88.1041101, 41.7497096], [-88.1040967, 41.7496716], [-88.1040806, 41.7495735], [-88.1040726, 41.7495395], [-88.1040845, 41.7495066], [-88.1041021, 41.7494915], [-88.1041328, 41.7494826], [-88.1041772, 41.7494795], [-88.1042281, 41.7494795], [-88.104271, 41.7494795], [-88.1043006, 41.7494695], [-88.1043232, 41.7494526], [-88.1043462, 41.7494415], [-88.1043596, 41.7494475], [-88.1043596, 41.7494555], [-88.1043274, 41.7494795], [-88.104314, 41.7494955], [-88.1043059, 41.7495175], [-88.1043032, 41.7495495], [-88.1042925, 41.7495755], [-88.1042737, 41.7496055], [-88.1042453, 41.749637], [-88.1042326, 41.7496756], [-88.1042335, 41.7497196], [-88.1042389, 41.7497476], [-88.1042281, 41.7497796], [-88.1042335, 41.7498137], [-88.1042523, 41.7498257], [-88.1042684, 41.7498497], [-88.1042684, 41.7498697], [-88.1042523, 41.7498797], [-88.1042228, 41.7498917], [-88.1042079, 41.7499068], [-88.1042067, 41.7499277], [-88.1042174, 41.7499457], [-88.1042335, 41.7499657], [-88.1042308, 41.7499877], [-88.1042415, 41.7500138]]]}}, {"type": "Feature", "id": 354641335, "properties": {"osm_id": 354641335, "osm_type": "way", "natural": "water", "water": "reservoir"}, "geometry": {"type": "Polygon", "coordinates": [[[-88.1148375, 41.7545712], [-88.1147665, 41.7545901], [-88.1146405, 41.7546021], [-88.1144474, 41.7546101], [-88.1143064, 41.7546172], [-88.1141925, 41.7546281], [-88.1141362, 41.7546361], [-88.1140826, 41.7546521], [-88.114014, 41.7546832], [-88.1139404, 41.7547281], [-88.1138626, 41.7547962], [-88.1137983, 41.7548982], [-88.1137607, 41.7549282], [-88.1137392, 41.7549462], [-88.1136883, 41.7549522], [-88.1136534, 41.7549462], [-88.1136293, 41.7549262], [-88.1135971, 41.7548882], [-88.1135703, 41.7547762], [-88.1135461, 41.7547241], [-88.1135274, 41.7546641], [-88.1135327, 41.7546021], [-88.1135434, 41.754518], [-88.1135676, 41.754436], [-88.1136132, 41.754368], [-88.1136749, 41.7542919], [-88.1137366, 41.7542359], [-88.113809, 41.7541839], [-88.1139055, 41.7541259], [-88.1139941, 41.7540918], [-88.1141201, 41.7540519], [-88.1142975, 41.754008], [-88.1143883, 41.7539978], [-88.11449324741257, 41.75398618965614], [-88.11485216887718, 41.75456573024919], [-88.1148375, 41.7545712]]]}}, {"type": "Feature", "id": 650323250, "properties": {"osm_id": 650323250, "osm_type": "way", "natural": "water", "water": "reservoir"}, "geometry": {"type": "Polygon", "coordinates": [[[-88.0999327, 41.7478374], [-88.1001178, 41.7478346], [-88.1001575, 41.747859], [-88.1002269, 41.7479014], [-88.1003051, 41.7479389], [-88.1003754, 41.7479672], [-88.1004243, 41.7479803], [-88.10049, 41.7479857], [-88.1005711, 41.7481042], [-88.1005335, 41.7481217], [-88.0999427, 41.7481325], [-88.0999327, 41.7478374]]]}}]}